{"error":0,"result":[{"id":"601","name_th":"\u0e01\u0e0e\u0e2b\u0e21\u0e32\u0e22\u0e2a\u0e34\u0e48\u0e07\u0e41\u0e27\u0e14\u0e25\u0e49\u0e2d\u0e21","parent_id":"600"}, {"id":"2309","name_th":"\u0e01\u0e23\u0e23\u0e21\u0e01\u0e32\u0e23\u0e1c\u0e39\u0e49\u0e08\u0e31\u0e14\u0e01\u0e32\u0e23","parent_id":"2300"}, {"id":"3005","name_th":"\u0e01\u0e2d\u0e07\u0e1a\u0e23\u0e23\u0e13\u0e32\u0e18\u0e34\u0e01\u0e32\u0e23","parent_id":"3000"}, {"id":"3201","name_th":"\u0e02\u0e19\u0e2a\u0e48\u0e07\/\u0e40\u0e04\u0e25\u0e37\u0e48\u0e2d\u0e19\u0e22\u0e49\u0e32\u0e22","parent_id":"3200"}, {"id":"2602","name_th":"\u0e04\u0e19\u0e02\u0e31\u0e1a\u0e40\u0e23\u0e37\u0e2d","parent_id":"2600"}, {"id":"1106","name_th":"\u0e04\u0e23\u0e39\/\u0e2d\u0e32\u0e08\u0e32\u0e23\u0e22\u0e4c","parent_id":"1100"}, {"id":"2105","name_th":"\u0e04\u0e23\u0e39\u0e1d\u0e36\u0e01","parent_id":"2100"}, {"id":"1107","name_th":"\u0e04\u0e23\u0e39\u0e23\u0e31\u0e1a\u0e08\u0e49\u0e32\u0e07\u0e2a\u0e2d\u0e19\u0e1e\u0e34\u0e40\u0e28\u0e29","parent_id":"1100"}, {"id":"1105","name_th":"\u0e04\u0e23\u0e39\u0e2a\u0e2d\u0e19\u0e0a\u0e31\u0e49\u0e19\u0e1b\u0e23\u0e30\u0e16\u0e21\/\u0e21\u0e31\u0e18\u0e22\u0e21\u0e28\u0e36\u0e01\u0e29\u0e32","parent_id":"1100"}, {"id":"1102","name_th":"\u0e04\u0e23\u0e39\u0e42\u0e23\u0e07\u0e40\u0e23\u0e35\u0e22\u0e19\u0e2d\u0e19\u0e38\u0e1a\u0e32\u0e25","parent_id":"1100"}, {"id":"705","name_th":"\u0e04\u0e2d\u0e21\u0e1e\u0e34\u0e27\u0e40\u0e15\u0e2d\u0e23\u0e4c\u0e01\u0e23\u0e32\u0e1f\u0e1f\u0e34\u0e04","parent_id":"700"}, {"id":"606","name_th":"\u0e07\u0e32\u0e19\u0e04\u0e14\u0e35\/\u0e2a\u0e48\u0e07\u0e40\u0e2a\u0e23\u0e34\u0e21\u0e27\u0e34\u0e19\u0e31\u0e22","parent_id":"600"}, {"id":"3303","name_th":"\u0e07\u0e32\u0e19\u0e1e\u0e34\u0e40\u0e28\u0e29\u0e21\u0e32\u0e17\u0e33\u0e17\u0e35\u0e48\u0e1a\u0e49\u0e32\u0e19","parent_id":"3300"}, {"id":"3214","name_th":"\u0e0a\u0e48\u0e32\u0e07\u0e01\u0e23\u0e30\u0e08\u0e01\/\u0e2d\u0e25\u0e39\u0e21\u0e34\u0e40\u0e19\u0e35\u0e22\u0e21\/\u0e1d\u0e49\u0e32\u0e40\u0e1e\u0e14\u0e32\u0e19","parent_id":"3200"}, {"id":"809","name_th":"\u0e0a\u0e48\u0e32\u0e07\u0e01\u0e48\u0e2d\u0e2a\u0e23\u0e49\u0e32\u0e07","parent_id":"800"}, {"id":"3202","name_th":"\u0e0a\u0e48\u0e32\u0e07\u0e01\u0e48\u0e2d\u0e2a\u0e23\u0e49\u0e32\u0e07\/\u0e23\u0e31\u0e1a\u0e40\u0e2b\u0e21\u0e32","parent_id":"3200"}, {"id":"3218","name_th":"\u0e0a\u0e48\u0e32\u0e07\u0e01\u0e31\u0e19\u0e2a\u0e32\u0e14\/\u0e2b\u0e25\u0e31\u0e07\u0e04\u0e32\/\u0e1c\u0e49\u0e32\u0e43\u0e1a","parent_id":"3200"}, {"id":"3211","name_th":"\u0e0a\u0e48\u0e32\u0e07\u0e01\u0e33\u0e08\u0e31\u0e14\u0e1b\u0e25\u0e27\u0e01 \u0e41\u0e21\u0e25\u0e07 \u0e2b\u0e19\u0e39","parent_id":"3200"}, {"id":"3228","name_th":"\u0e0a\u0e48\u0e32\u0e07\u0e01\u0e38\u0e0d\u0e41\u0e08","parent_id":"3200"}, {"id":"3208","name_th":"\u0e0a\u0e48\u0e32\u0e07\u0e04\u0e2d\u0e21\u0e1e\u0e34\u0e27\u0e40\u0e15\u0e2d\u0e23\u0e4c","parent_id":"3200"}, {"id":"3207","name_th":"\u0e0a\u0e48\u0e32\u0e07\u0e0b\u0e48\u0e2d\u0e21\u0e40\u0e04\u0e23\u0e37\u0e48\u0e2d\u0e07\u0e43\u0e0a\u0e49\u0e44\u0e1f\u0e1f\u0e49\u0e32","parent_id":"3200"}, {"id":"3020","name_th":"\u0e0a\u0e48\u0e32\u0e07\u0e15\u0e31\u0e14\u0e15\u0e48\u0e2d\u0e27\u0e34\u0e14\u0e35\u0e42\u0e2d","parent_id":"3000"}, {"id":"3229","name_th":"\u0e0a\u0e48\u0e32\u0e07\u0e15\u0e34\u0e14\u0e15\u0e31\u0e49\u0e07\u0e01\u0e25\u0e49\u0e2d\u0e07\u0e27\u0e07\u0e08\u0e23\u0e1b\u0e34\u0e14","parent_id":"3200"}, {"id":"3223","name_th":"\u0e0a\u0e48\u0e32\u0e07\u0e17\u0e33\u0e04\u0e27\u0e32\u0e21\u0e2a\u0e30\u0e2d\u0e32\u0e14","parent_id":"3200"}, {"id":"3226","name_th":"\u0e0a\u0e48\u0e32\u0e07\u0e17\u0e33\u0e1b\u0e49\u0e32\u0e22\u0e41\u0e25\u0e30\u0e2a\u0e37\u0e48\u0e2d\u0e42\u0e06\u0e29\u0e13\u0e32","parent_id":"3200"}, {"id":"3227","name_th":"\u0e0a\u0e48\u0e32\u0e07\u0e17\u0e33\u0e2a\u0e23\u0e30\u0e27\u0e48\u0e32\u0e22\u0e19\u0e49\u0e33","parent_id":"3200"}, {"id":"205","name_th":"\u0e0a\u0e48\u0e32\u0e07\u0e17\u0e33\u0e40\u0e04\u0e23\u0e37\u0e48\u0e2d\u0e07\u0e1b\u0e23\u0e30\u0e14\u0e31\u0e1a","parent_id":"200"}, {"id":"3219","name_th":"\u0e0a\u0e48\u0e32\u0e07\u0e1b\u0e23\u0e30\u0e15\u0e39\/\u0e23\u0e31\u0e49\u0e27\/\u0e40\u0e2b\u0e25\u0e47\u0e01\u0e14\u0e31\u0e14","parent_id":"3200"}, {"id":"3204","name_th":"\u0e0a\u0e48\u0e32\u0e07\u0e1b\u0e23\u0e30\u0e1b\u0e32\/\u0e2a\u0e38\u0e02\u0e20\u0e31\u0e13\u0e11\u0e4c","parent_id":"3200"}, {"id":"3217","name_th":"\u0e0a\u0e48\u0e32\u0e07\u0e1b\u0e39\u0e1e\u0e37\u0e49\u0e19\/\u0e1b\u0e39\u0e01\u0e23\u0e30\u0e40\u0e1a\u0e37\u0e49\u0e2d\u0e07","parent_id":"3200"}, {"id":"3220","name_th":"\u0e0a\u0e48\u0e32\u0e07\u0e1c\u0e49\u0e32\u0e21\u0e48\u0e32\u0e19\/\u0e27\u0e2d\u0e25\u0e25\u0e4c\u0e40\u0e1b\u0e40\u0e1b\u0e2d\u0e23\u0e4c","parent_id":"3200"}, {"id":"712","name_th":"\u0e0a\u0e48\u0e32\u0e07\u0e1d\u0e35\u0e21\u0e37\u0e2d\/\u0e0a\u0e48\u0e32\u0e07\u0e40\u0e17\u0e04\u0e19\u0e34\u0e04","parent_id":"700"}, {"id":"710","name_th":"\u0e0a\u0e48\u0e32\u0e07\u0e20\u0e32\u0e1e","parent_id":"700"}, {"id":"3010","name_th":"\u0e0a\u0e48\u0e32\u0e07\u0e20\u0e32\u0e1e","parent_id":"3000"}, {"id":"3225","name_th":"\u0e0a\u0e48\u0e32\u0e07\u0e20\u0e32\u0e1e","parent_id":"3200"}, {"id":"3206","name_th":"\u0e0a\u0e48\u0e32\u0e07\u0e22\u0e19\u0e15\u0e4c","parent_id":"3200"}, {"id":"3222","name_th":"\u0e0a\u0e48\u0e32\u0e07\u0e23\u0e37\u0e49\u0e2d\u0e16\u0e2d\u0e19","parent_id":"3200"}, {"id":"3224","name_th":"\u0e0a\u0e48\u0e32\u0e07\u0e27\u0e32\u0e07\u0e23\u0e30\u0e1a\u0e1a\u0e20\u0e32\u0e22\u0e43\u0e19\u0e2a\u0e33\u0e19\u0e31\u0e01\u0e07\u0e32\u0e19","parent_id":"3200"}, {"id":"3212","name_th":"\u0e0a\u0e48\u0e32\u0e07\u0e2a\u0e35","parent_id":"3200"}, {"id":"3210","name_th":"\u0e0a\u0e48\u0e32\u0e07\u0e2d\u0e2d\u0e01\u0e41\u0e1a\u0e1a\/\u0e15\u0e01\u0e41\u0e15\u0e48\u0e07\u0e20\u0e32\u0e22\u0e43\u0e19","parent_id":"3200"}, {"id":"3213","name_th":"\u0e0a\u0e48\u0e32\u0e07\u0e2d\u0e2d\u0e01\u0e41\u0e1a\u0e1a\u0e2a\u0e27\u0e19\/\u0e08\u0e31\u0e14\u0e2a\u0e27\u0e19\/\u0e15\u0e31\u0e14\u0e2b\u0e0d\u0e49\u0e32","parent_id":"3200"}, {"id":"2901","name_th":"\u0e0a\u0e48\u0e32\u0e07\u0e40\u0e04\u0e23\u0e37\u0e48\u0e2d\u0e07\u0e1a\u0e34\u0e19","parent_id":"2900"}, {"id":"503","name_th":"\u0e0a\u0e48\u0e32\u0e07\u0e40\u0e04\u0e23\u0e37\u0e48\u0e2d\u0e07\u0e22\u0e19\u0e15\u0e4c\/ \u0e40\u0e04\u0e23\u0e37\u0e48\u0e2d\u0e07\u0e08\u0e31\u0e01\u0e23\/ \u0e0a\u0e48\u0e32\u0e07\u0e40\u0e17\u0e04\u0e19\u0e34\u0e04","parent_id":"500"}, {"id":"3216","name_th":"\u0e0a\u0e48\u0e32\u0e07\u0e40\u0e0a\u0e37\u0e48\u0e2d\u0e21\/\u0e01\u0e25\u0e36\u0e07\u0e42\u0e25\u0e2b\u0e30","parent_id":"3200"}, {"id":"3209","name_th":"\u0e0a\u0e48\u0e32\u0e07\u0e40\u0e1f\u0e2d\u0e23\u0e4c\u0e19\u0e34\u0e40\u0e08\u0e2d\u0e23\u0e4c\/\u0e0a\u0e48\u0e32\u0e07\u0e44\u0e21\u0e49","parent_id":"3200"}, {"id":"2103","name_th":"\u0e0a\u0e48\u0e32\u0e07\u0e40\u0e2a\u0e23\u0e34\u0e21\u0e2a\u0e27\u0e22\/\u0e17\u0e33\u0e1c\u0e21","parent_id":"2100"}, {"id":"3221","name_th":"\u0e0a\u0e48\u0e32\u0e07\u0e40\u0e2a\u0e32\u0e2d\u0e32\u0e01\u0e32\u0e28\/\u0e14\u0e32\u0e27\u0e40\u0e17\u0e35\u0e22\u0e21","parent_id":"3200"}, {"id":"3215","name_th":"\u0e0a\u0e48\u0e32\u0e07\u0e40\u0e2b\u0e25\u0e47\u0e01","parent_id":"3200"}, {"id":"3205","name_th":"\u0e0a\u0e48\u0e32\u0e07\u0e41\u0e2d\u0e23\u0e4c","parent_id":"3200"}, {"id":"3203","name_th":"\u0e0a\u0e48\u0e32\u0e07\u0e44\u0e1f\u0e1f\u0e49\u0e32","parent_id":"3200"}, {"id":"2404","name_th":"\u0e15\u0e31\u0e27\u0e41\u0e17\u0e19\u0e02\u0e32\u0e22\u0e15\u0e23\u0e07","parent_id":"2400"}, {"id":"403","name_th":"\u0e15\u0e31\u0e27\u0e41\u0e17\u0e19\u0e08\u0e33\u0e2b\u0e19\u0e48\u0e32\u0e22\u0e40\u0e27\u0e0a\u0e20\u0e31\u0e13\u0e11\u0e4c","parent_id":"400"}, {"id":"2201","name_th":"\u0e15\u0e31\u0e27\u0e41\u0e17\u0e19\u0e1b\u0e23\u0e30\u0e01\u0e31\u0e19\u0e0a\u0e35\u0e27\u0e34\u0e15","parent_id":"2200"}, {"id":"3007","name_th":"\u0e15\u0e31\u0e27\u0e41\u0e17\u0e19\u0e43\u0e19\u0e01\u0e32\u0e23\u0e0b\u0e37\u0e49\u0e2d\u0e2a\u0e37\u0e48\u0e2d","parent_id":"3000"}, {"id":"607","name_th":"\u0e17\u0e19\u0e32\u0e22\u0e04\u0e27\u0e32\u0e21","parent_id":"600"}, {"id":"401","name_th":"\u0e17\u0e31\u0e19\u0e15\u0e41\u0e1e\u0e17\u0e22\u0e4c","parent_id":"400"}, {"id":"1606","name_th":"\u0e17\u0e35\u0e48\u0e1b\u0e23\u0e36\u0e01\u0e29\u0e32\u0e07\u0e32\u0e19\u0e01\u0e48\u0e2d\u0e2a\u0e23\u0e49\u0e32\u0e07","parent_id":"1600"}, {"id":"1614","name_th":"\u0e17\u0e35\u0e48\u0e1b\u0e23\u0e36\u0e01\u0e29\u0e32\u0e14\u0e49\u0e32\u0e19\u0e01\u0e0f\u0e2b\u0e21\u0e32\u0e22","parent_id":"1600"}, {"id":"1617","name_th":"\u0e17\u0e35\u0e48\u0e1b\u0e23\u0e36\u0e01\u0e29\u0e32\u0e14\u0e49\u0e32\u0e19\u0e01\u0e32\u0e23\u0e02\u0e32\u0e22","parent_id":"1600"}, {"id":"1615","name_th":"\u0e17\u0e35\u0e48\u0e1b\u0e23\u0e36\u0e01\u0e29\u0e32\u0e14\u0e49\u0e32\u0e19\u0e01\u0e32\u0e23\u0e15\u0e25\u0e32\u0e14","parent_id":"1600"}, {"id":"1611","name_th":"\u0e17\u0e35\u0e48\u0e1b\u0e23\u0e36\u0e01\u0e29\u0e32\u0e14\u0e49\u0e32\u0e19\u0e01\u0e32\u0e23\u0e2a\u0e21\u0e23\u0e2a","parent_id":"1600"}, {"id":"414","name_th":"\u0e17\u0e35\u0e48\u0e1b\u0e23\u0e36\u0e01\u0e29\u0e32\u0e14\u0e49\u0e32\u0e19\u0e01\u0e32\u0e23\u0e2d\u0e2d\u0e01\u0e01\u0e33\u0e25\u0e31\u0e07\u0e01\u0e32\u0e22","parent_id":"400"}, {"id":"1602","name_th":"\u0e17\u0e35\u0e48\u0e1b\u0e23\u0e36\u0e01\u0e29\u0e32\u0e14\u0e49\u0e32\u0e19\u0e01\u0e32\u0e23\u0e43\u0e0a\u0e49\u0e42\u0e1b\u0e23\u0e41\u0e01\u0e23\u0e21\u0e15\u0e48\u0e32\u0e07\u0e46","parent_id":"1600"}, {"id":"1608","name_th":"\u0e17\u0e35\u0e48\u0e1b\u0e23\u0e36\u0e01\u0e29\u0e32\u0e14\u0e49\u0e32\u0e19\u0e02\u0e2d\u0e2a\u0e34\u0e19\u0e40\u0e0a\u0e37\u0e48\u0e2d","parent_id":"1600"}, {"id":"1210","name_th":"\u0e17\u0e35\u0e48\u0e1b\u0e23\u0e36\u0e01\u0e29\u0e32\u0e14\u0e49\u0e32\u0e19\u0e27\u0e34\u0e17\u0e22\u0e32\u0e28\u0e32\u0e2a\u0e15\u0e23\u0e4c\u0e0a\u0e35\u0e27\u0e01\u0e32\u0e23\u0e41\u0e1e\u0e17\u0e22\u0e4c","parent_id":"1200"}, {"id":"1603","name_th":"\u0e17\u0e35\u0e48\u0e1b\u0e23\u0e36\u0e01\u0e29\u0e32\u0e14\u0e49\u0e32\u0e19\u0e27\u0e34\u0e17\u0e22\u0e32\u0e28\u0e32\u0e2a\u0e15\u0e23\u0e4c\u0e0a\u0e35\u0e27\u0e01\u0e32\u0e23\u0e41\u0e1e\u0e17\u0e22\u0e4c","parent_id":"1600"}, {"id":"1605","name_th":"\u0e17\u0e35\u0e48\u0e1b\u0e23\u0e36\u0e01\u0e29\u0e32\u0e14\u0e49\u0e32\u0e19\u0e27\u0e34\u0e28\u0e27\u0e01\u0e23\u0e23\u0e21","parent_id":"1600"}, {"id":"1612","name_th":"\u0e17\u0e35\u0e48\u0e1b\u0e23\u0e36\u0e01\u0e29\u0e32\u0e17\u0e32\u0e07\u0e01\u0e32\u0e23\u0e40\u0e07\u0e34\u0e19","parent_id":"1600"}, {"id":"1601","name_th":"\u0e17\u0e35\u0e48\u0e1b\u0e23\u0e36\u0e01\u0e29\u0e32\u0e17\u0e32\u0e07\u0e14\u0e49\u0e32\u0e19\u0e01\u0e32\u0e23\u0e27\u0e32\u0e07\u0e41\u0e1c\u0e19\u0e01\u0e25\u0e22\u0e38\u0e17\u0e18\u0e4c","parent_id":"1600"}, {"id":"1616","name_th":"\u0e17\u0e35\u0e48\u0e1b\u0e23\u0e36\u0e01\u0e29\u0e32\u0e17\u0e32\u0e07\u0e14\u0e49\u0e32\u0e19\u0e01\u0e32\u0e23\u0e41\u0e1e\u0e17\u0e22\u0e4c","parent_id":"1600"}, {"id":"1609","name_th":"\u0e17\u0e35\u0e48\u0e1b\u0e23\u0e36\u0e01\u0e29\u0e32\u0e17\u0e32\u0e07\u0e14\u0e49\u0e32\u0e19\u0e40\u0e17\u0e04\u0e19\u0e34\u0e04\u0e41\u0e25\u0e30\u0e2d\u0e2d\u0e01\u0e41\u0e1a\u0e1a","parent_id":"1600"}, {"id":"1613","name_th":"\u0e17\u0e35\u0e48\u0e1b\u0e23\u0e36\u0e01\u0e29\u0e32\u0e2a\u0e32\u0e22\u0e07\u0e32\u0e19\u0e08\u0e31\u0e14\u0e01\u0e32\u0e23\u0e41\u0e25\u0e30\u0e07\u0e32\u0e19\u0e1a\u0e38\u0e04\u0e04\u0e25","parent_id":"1600"}, {"id":"1619","name_th":"\u0e17\u0e35\u0e48\u0e1b\u0e23\u0e36\u0e01\u0e29\u0e32\u0e40\u0e01\u0e35\u0e48\u0e22\u0e27\u0e01\u0e31\u0e1a\u0e01\u0e32\u0e23\u0e17\u0e33\u0e15\u0e25\u0e32\u0e14\u0e2d\u0e2d\u0e19\u0e44\u0e25\u0e19\u0e4c","parent_id":"1600"}, {"id":"1618","name_th":"\u0e17\u0e35\u0e48\u0e1b\u0e23\u0e36\u0e01\u0e29\u0e32\u0e40\u0e01\u0e35\u0e48\u0e22\u0e27\u0e01\u0e31\u0e1a\u0e23\u0e30\u0e1a\u0e1a\u0e04\u0e2d\u0e21\u0e1e\u0e34\u0e27\u0e40\u0e15\u0e2d\u0e23\u0e4c\u0e41\u0e25\u0e30\u0e04\u0e27\u0e32\u0e21\u0e1b\u0e25\u0e2d\u0e14\u0e20\u0e31\u0e22","parent_id":"1600"}, {"id":"1610","name_th":"\u0e17\u0e35\u0e48\u0e1b\u0e23\u0e36\u0e01\u0e29\u0e32\u0e41\u0e19\u0e30\u0e41\u0e19\u0e27\u0e01\u0e32\u0e23\u0e28\u0e36\u0e01\u0e29\u0e32","parent_id":"1600"}, {"id":"1306","name_th":"\u0e18\u0e38\u0e23\u0e01\u0e34\u0e08\u0e04\u0e49\u0e32\u0e02\u0e32\u0e22\u0e17\u0e31\u0e48\u0e27\u0e44\u0e1b","parent_id":"1300"}, {"id":"1307","name_th":"\u0e18\u0e38\u0e23\u0e01\u0e34\u0e08\u0e04\u0e49\u0e32\u0e1b\u0e25\u0e35\u0e01","parent_id":"1300"}, {"id":"1301","name_th":"\u0e18\u0e38\u0e23\u0e01\u0e34\u0e08\u0e04\u0e49\u0e32\u0e1b\u0e25\u0e35\u0e01\u0e2a\u0e21\u0e31\u0e22\u0e43\u0e2b\u0e21\u0e48","parent_id":"1300"}, {"id":"1304","name_th":"\u0e18\u0e38\u0e23\u0e01\u0e34\u0e08\u0e04\u0e49\u0e32\u0e2a\u0e48\u0e07","parent_id":"1300"}, {"id":"408","name_th":"\u0e19\u0e31\u0e01\u0e01\u0e32\u0e22\u0e20\u0e32\u0e1e\u0e1a\u0e33\u0e1a\u0e31\u0e14","parent_id":"400"}, {"id":"417","name_th":"\u0e19\u0e31\u0e01\u0e08\u0e38\u0e25\u0e0a\u0e35\u0e27\u0e27\u0e34\u0e17\u0e22\u0e32","parent_id":"400"}, {"id":"1201","name_th":"\u0e19\u0e31\u0e01\u0e0a\u0e35\u0e27\u0e27\u0e34\u0e17\u0e22\u0e32","parent_id":"1200"}, {"id":"1514","name_th":"\u0e19\u0e31\u0e01\u0e14\u0e19\u0e15\u0e23\u0e35","parent_id":"1500"}, {"id":"2104","name_th":"\u0e19\u0e31\u0e01\u0e14\u0e19\u0e15\u0e23\u0e35","parent_id":"2100"}, {"id":"101","name_th":"\u0e19\u0e31\u0e01\u0e18\u0e23\u0e13\u0e35\u0e1f\u0e34\u0e2a\u0e34\u0e01\u0e2a\u0e4c","parent_id":"100"}, {"id":"2902","name_th":"\u0e19\u0e31\u0e01\u0e1a\u0e34\u0e19","parent_id":"2900"}, {"id":"1204","name_th":"\u0e19\u0e31\u0e01\u0e27\u0e34\u0e17\u0e22\u0e32\u0e28\u0e32\u0e2a\u0e15\u0e23\u0e4c\u0e2a\u0e34\u0e48\u0e07\u0e41\u0e27\u0e14\u0e25\u0e49\u0e2d\u0e21","parent_id":"1200"}, {"id":"708","name_th":"\u0e19\u0e31\u0e01\u0e2d\u0e2d\u0e01\u0e41\u0e1a\u0e1a\u0e01\u0e23\u0e32\u0e1f\u0e1f\u0e34\u0e01","parent_id":"700"}, {"id":"709","name_th":"\u0e19\u0e31\u0e01\u0e2d\u0e2d\u0e01\u0e41\u0e1a\u0e1a\u0e20\u0e32\u0e22\u0e43\u0e19","parent_id":"700"}, {"id":"204","name_th":"\u0e19\u0e31\u0e01\u0e2d\u0e2d\u0e01\u0e41\u0e1a\u0e1a\u0e2d\u0e31\u0e0d\u0e21\u0e13\u0e35","parent_id":"200"}, {"id":"701","name_th":"\u0e19\u0e31\u0e01\u0e2d\u0e2d\u0e01\u0e41\u0e1a\u0e1a\u0e40\u0e2a\u0e37\u0e49\u0e2d\u0e1c\u0e49\u0e32","parent_id":"700"}, {"id":"3017","name_th":"\u0e19\u0e31\u0e01\u0e40\u0e02\u0e35\u0e22\u0e19","parent_id":"3000"}, {"id":"1202","name_th":"\u0e19\u0e31\u0e01\u0e40\u0e04\u0e21\u0e35","parent_id":"1200"}, {"id":"415","name_th":"\u0e19\u0e31\u0e01\u0e40\u0e27\u0e0a\u0e2a\u0e16\u0e34\u0e15\u0e34","parent_id":"400"}, {"id":"905","name_th":"\u0e19\u0e31\u0e01\u0e40\u0e28\u0e23\u0e29\u0e10\u0e28\u0e32\u0e2a\u0e15\u0e23\u0e4c","parent_id":"900"}, {"id":"2702","name_th":"\u0e19\u0e31\u0e01\u0e41\u0e1b\u0e25\u0e20\u0e32\u0e29\u0e32","parent_id":"2700"}, {"id":"2102","name_th":"\u0e19\u0e31\u0e01\u0e41\u0e2a\u0e14\u0e07","parent_id":"2100"}, {"id":"103","name_th":"\u0e19\u0e31\u0e01\u0e42\u0e20\u0e0a\u0e19\u0e32\u0e01\u0e32\u0e23","parent_id":"100"}, {"id":"610","name_th":"\u0e19\u0e34\u0e15\u0e34\u0e01\u0e23","parent_id":"600"}, {"id":"1104","name_th":"\u0e1a\u0e23\u0e23\u0e13\u0e32\u0e23\u0e31\u0e01\u0e29\u0e4c","parent_id":"1100"}, {"id":"2604","name_th":"\u0e1a\u0e23\u0e34\u0e01\u0e23\u0e0a\u0e32\u0e22\/\u0e2b\u0e0d\u0e34\u0e07","parent_id":"2600"}, {"id":"1520","name_th":"\u0e1a\u0e32\u0e23\u0e34\u0e2a\u0e15\u0e49\u0e32","parent_id":"1500"}, {"id":"1506","name_th":"\u0e1a\u0e32\u0e23\u0e4c\u0e40\u0e17\u0e19\u0e40\u0e14\u0e2d\u0e23\u0e4c","parent_id":"1500"}, {"id":"2304","name_th":"\u0e1b\u0e23\u0e30\u0e18\u0e32\u0e19\/ \u0e2b\u0e31\u0e27\u0e2b\u0e19\u0e49\u0e32\u0e1d\u0e48\u0e32\u0e22\u0e01\u0e32\u0e23\u0e40\u0e07\u0e34\u0e19","parent_id":"2300"}, {"id":"2305","name_th":"\u0e1b\u0e23\u0e30\u0e18\u0e32\u0e19\/\u0e2b\u0e31\u0e27\u0e2b\u0e19\u0e49\u0e32\u0e1d\u0e48\u0e32\u0e22\u0e1b\u0e0e\u0e34\u0e1a\u0e31\u0e15\u0e34\u0e01\u0e32\u0e23","parent_id":"2300"}, {"id":"2306","name_th":"\u0e1b\u0e23\u0e30\u0e18\u0e32\u0e19\/\u0e2b\u0e31\u0e27\u0e2b\u0e19\u0e49\u0e32\u0e1d\u0e48\u0e32\u0e22\u0e2a\u0e32\u0e23\u0e2a\u0e19\u0e40\u0e17\u0e28","parent_id":"2300"}, {"id":"2310","name_th":"\u0e1b\u0e23\u0e30\u0e18\u0e32\u0e19\u0e1a\u0e23\u0e34\u0e29\u0e31\u0e17","parent_id":"2300"}, {"id":"2303","name_th":"\u0e1b\u0e23\u0e30\u0e18\u0e32\u0e19\u0e1c\u0e39\u0e49\u0e2d\u0e33\u0e19\u0e27\u0e22\u0e01\u0e32\u0e23","parent_id":"2300"}, {"id":"3011","name_th":"\u0e1c\u0e39\u0e49\u0e04\u0e27\u0e1a\u0e04\u0e38\u0e21\u0e01\u0e32\u0e23\u0e1c\u0e25\u0e34\u0e15","parent_id":"3000"}, {"id":"807","name_th":"\u0e1c\u0e39\u0e49\u0e04\u0e27\u0e1a\u0e04\u0e38\u0e21\u0e07\u0e32\u0e19\u0e01\u0e48\u0e2d\u0e2a\u0e23\u0e49\u0e32\u0e07","parent_id":"800"}, {"id":"2308","name_th":"\u0e1c\u0e39\u0e49\u0e08\u0e31\u0e14\u0e01\u0e32\u0e23","parent_id":"2300"}, {"id":"504","name_th":"\u0e1c\u0e39\u0e49\u0e08\u0e31\u0e14\u0e01\u0e32\u0e23\u0e14\u0e49\u0e32\u0e19\u0e01\u0e32\u0e23\u0e1c\u0e25\u0e34\u0e15\/ \u0e42\u0e23\u0e07\u0e07\u0e32\u0e19","parent_id":"500"}, {"id":"2301","name_th":"\u0e1c\u0e39\u0e49\u0e08\u0e31\u0e14\u0e01\u0e32\u0e23\u0e17\u0e31\u0e48\u0e27\u0e44\u0e1b","parent_id":"2300"}, {"id":"1302","name_th":"\u0e1c\u0e39\u0e49\u0e08\u0e31\u0e14\u0e01\u0e32\u0e23\u0e23\u0e49\u0e32\u0e19","parent_id":"1300"}, {"id":"1308","name_th":"\u0e1c\u0e39\u0e49\u0e08\u0e31\u0e14\u0e01\u0e32\u0e23\u0e2a\u0e32\u0e02\u0e32","parent_id":"1300"}, {"id":"823","name_th":"\u0e1c\u0e39\u0e49\u0e08\u0e31\u0e14\u0e01\u0e32\u0e23\u0e2d\u0e32\u0e04\u0e32\u0e23","parent_id":"800"}, {"id":"315","name_th":"\u0e1c\u0e39\u0e49\u0e08\u0e31\u0e14\u0e01\u0e32\u0e23\u0e42\u0e04\u0e23\u0e07\u0e01\u0e32\u0e23 IT","parent_id":"300"}, {"id":"810","name_th":"\u0e1c\u0e39\u0e49\u0e08\u0e31\u0e14\u0e01\u0e32\u0e23\u0e42\u0e04\u0e23\u0e07\u0e01\u0e32\u0e23\/\u0e27\u0e34\u0e28\u0e27\u0e01\u0e23\u0e42\u0e04\u0e23\u0e07\u0e01\u0e32\u0e23","parent_id":"800"}, {"id":"2317","name_th":"\u0e1c\u0e39\u0e49\u0e0a\u0e48\u0e27\u0e22\u0e01\u0e23\u0e23\u0e21\u0e01\u0e32\u0e23\u0e1c\u0e39\u0e49\u0e08\u0e31\u0e14\u0e01\u0e32\u0e23","parent_id":"2300"}, {"id":"2316","name_th":"\u0e1c\u0e39\u0e49\u0e0a\u0e48\u0e27\u0e22\u0e23\u0e2d\u0e07\u0e1b\u0e23\u0e30\u0e18\u0e32\u0e19","parent_id":"2300"}, {"id":"320","name_th":"\u0e1c\u0e39\u0e49\u0e14\u0e39\u0e41\u0e25\u0e14\u0e49\u0e32\u0e19\u0e40\u0e17\u0e04\u0e19\u0e34\u0e04","parent_id":"300"}, {"id":"318","name_th":"\u0e1c\u0e39\u0e49\u0e14\u0e39\u0e41\u0e25\u0e23\u0e30\u0e1a\u0e1a","parent_id":"300"}, {"id":"308","name_th":"\u0e1c\u0e39\u0e49\u0e14\u0e39\u0e41\u0e25\u0e23\u0e30\u0e1a\u0e1a\u0e10\u0e32\u0e19\u0e02\u0e49\u0e2d\u0e21\u0e39\u0e25","parent_id":"300"}, {"id":"312","name_th":"\u0e1c\u0e39\u0e49\u0e14\u0e39\u0e41\u0e25\u0e23\u0e30\u0e1a\u0e1a\u0e40\u0e04\u0e23\u0e37\u0e2d\u0e02\u0e48\u0e32\u0e22","parent_id":"300"}, {"id":"322","name_th":"\u0e1c\u0e39\u0e49\u0e14\u0e39\u0e41\u0e25\u0e40\u0e27\u0e47\u0e1a\u0e44\u0e0b\u0e15\u0e4c","parent_id":"300"}, {"id":"323","name_th":"\u0e1c\u0e39\u0e49\u0e14\u0e39\u0e41\u0e25\u0e41\u0e2d\u0e1e\u0e1e\u0e25\u0e34\u0e40\u0e04\u0e0a\u0e31\u0e48\u0e19","parent_id":"300"}, {"id":"2315","name_th":"\u0e1c\u0e39\u0e49\u0e1b\u0e23\u0e30\u0e01\u0e2d\u0e1a\u0e01\u0e32\u0e23\/\u0e40\u0e08\u0e49\u0e32\u0e02\u0e2d\u0e07\u0e18\u0e38\u0e23\u0e01\u0e34\u0e08","parent_id":"2300"}, {"id":"1704","name_th":"\u0e1c\u0e39\u0e49\u0e1b\u0e23\u0e30\u0e2a\u0e32\u0e19\u0e07\u0e32\u0e19","parent_id":"1700"}, {"id":"1303","name_th":"\u0e1c\u0e39\u0e49\u0e1b\u0e23\u0e30\u0e2a\u0e32\u0e19\u0e07\u0e32\u0e19\u0e14\u0e49\u0e32\u0e19\u0e01\u0e32\u0e23\u0e04\u0e49\u0e32","parent_id":"1300"}, {"id":"3101","name_th":"\u0e1c\u0e39\u0e49\u0e27\u0e48\u0e32\u0e01\u0e32\u0e23","parent_id":"3100"}, {"id":"3012","name_th":"\u0e1c\u0e39\u0e49\u0e2a\u0e37\u0e48\u0e2d\u0e02\u0e48\u0e32\u0e27","parent_id":"3000"}, {"id":"321","name_th":"\u0e1c\u0e39\u0e49\u0e2d\u0e2d\u0e01\u0e41\u0e1a\u0e1a\u0e40\u0e27\u0e47\u0e1a\u0e44\u0e0b\u0e14\u0e4c","parent_id":"300"}, {"id":"2307","name_th":"\u0e1c\u0e39\u0e49\u0e2d\u0e33\u0e19\u0e27\u0e22\u0e01\u0e32\u0e23","parent_id":"2300"}, {"id":"3106","name_th":"\u0e1c\u0e39\u0e49\u0e40\u0e0a\u0e35\u0e48\u0e22\u0e27\u0e0a\u0e32\u0e0d\/\u0e19\u0e31\u0e01\u0e27\u0e34\u0e0a\u0e32\u0e01\u0e32\u0e23\u0e17\u0e32\u0e07\u0e14\u0e49\u0e32\u0e19\u0e2a\u0e32\u0e02\u0e32\u0e15\u0e48\u0e32\u0e07\u0e46","parent_id":"3100"}, {"id":"206","name_th":"\u0e1c\u0e39\u0e49\u0e40\u0e0a\u0e35\u0e48\u0e22\u0e27\u0e0a\u0e32\u0e0d\u0e14\u0e49\u0e32\u0e19\u0e2d\u0e31\u0e0d\u0e21\u0e13\u0e35","parent_id":"200"}, {"id":"416","name_th":"\u0e1c\u0e39\u0e49\u0e40\u0e0a\u0e35\u0e48\u0e22\u0e27\u0e0a\u0e32\u0e0d\u0e14\u0e49\u0e32\u0e19\u0e41\u0e2d\u0e19\u0e15\u0e34\u0e1a\u0e2d\u0e14\u0e35\u0e49","parent_id":"400"}, {"id":"3102","name_th":"\u0e1d\u0e48\u0e32\u0e19\u0e1b\u0e0f\u0e34\u0e1a\u0e31\u0e15\u0e34\u0e01\u0e32\u0e23\u0e20\u0e32\u0e04\u0e2a\u0e19\u0e32\u0e21","parent_id":"3100"}, {"id":"1402","name_th":"\u0e1d\u0e48\u0e32\u0e22 \u0e08\u0e31\u0e14\u0e0b\u0e37\u0e49\u0e2d\/\u0e08\u0e31\u0e14\u0e2b\u0e32\/\u0e08\u0e31\u0e14\u0e08\u0e49\u0e32\u0e07 \u0e15\u0e48\u0e32\u0e07\u0e1b\u0e23\u0e30\u0e40\u0e17\u0e28","parent_id":"1400"}, {"id":"1403","name_th":"\u0e1d\u0e48\u0e32\u0e22 \u0e08\u0e31\u0e14\u0e0b\u0e37\u0e49\u0e2d\/\u0e08\u0e31\u0e14\u0e2b\u0e32\/\u0e08\u0e31\u0e14\u0e08\u0e49\u0e32\u0e07 \u0e43\u0e19\u0e1b\u0e23\u0e30\u0e40\u0e17\u0e28","parent_id":"1400"}, {"id":"602","name_th":"\u0e1d\u0e48\u0e32\u0e22\u0e01\u0e0e\u0e2b\u0e21\u0e32\u0e22\u0e23\u0e30\u0e2b\u0e27\u0e48\u0e32\u0e07\u0e2d\u0e07\u0e04\u0e4c\u0e01\u0e23","parent_id":"600"}, {"id":"1012","name_th":"\u0e1d\u0e48\u0e32\u0e22\u0e01\u0e32\u0e23\u0e15\u0e25\u0e32\u0e14","parent_id":"1000"}, {"id":"1010","name_th":"\u0e1d\u0e48\u0e32\u0e22\u0e01\u0e32\u0e23\u0e15\u0e25\u0e32\u0e14\u0e15\u0e48\u0e32\u0e07\u0e1b\u0e23\u0e30\u0e40\u0e17\u0e28","parent_id":"1000"}, {"id":"1805","name_th":"\u0e1d\u0e48\u0e32\u0e22\u0e01\u0e32\u0e23\u0e15\u0e25\u0e32\u0e14\u0e19\u0e33\u0e40\u0e02\u0e49\u0e32-\u0e2a\u0e48\u0e07\u0e2d\u0e2d\u0e01","parent_id":"1800"}, {"id":"1002","name_th":"\u0e1d\u0e48\u0e32\u0e22\u0e01\u0e32\u0e23\u0e15\u0e25\u0e32\u0e14\u0e2d\u0e2d\u0e19\u0e44\u0e25\u0e19\u0e4c","parent_id":"1000"}, {"id":"412","name_th":"\u0e1d\u0e48\u0e32\u0e22\u0e01\u0e32\u0e23\u0e1e\u0e22\u0e32\u0e1a\u0e32\u0e25\u0e28\u0e36\u0e01\u0e29\u0e32","parent_id":"400"}, {"id":"917","name_th":"\u0e1d\u0e48\u0e32\u0e22\u0e01\u0e32\u0e23\u0e40\u0e07\u0e34\u0e19","parent_id":"900"}, {"id":"2014","name_th":"\u0e1d\u0e48\u0e32\u0e22\u0e01\u0e32\u0e23\u0e40\u0e07\u0e34\u0e19","parent_id":"2000"}, {"id":"915","name_th":"\u0e1d\u0e48\u0e32\u0e22\u0e01\u0e33\u0e01\u0e31\u0e1a\u0e14\u0e39\u0e41\u0e25","parent_id":"900"}, {"id":"2501","name_th":"\u0e1d\u0e48\u0e32\u0e22\u0e01\u0e33\u0e01\u0e31\u0e1a\u0e14\u0e39\u0e41\u0e25","parent_id":"2500"}, {"id":"1007","name_th":"\u0e1d\u0e48\u0e32\u0e22\u0e01\u0e34\u0e08\u0e01\u0e23\u0e23\u0e21\u0e41\u0e25\u0e30\u0e2a\u0e48\u0e07\u0e40\u0e2a\u0e23\u0e34\u0e21\u0e01\u0e32\u0e23\u0e02\u0e32\u0e22","parent_id":"1000"}, {"id":"906","name_th":"\u0e1d\u0e48\u0e32\u0e22\u0e01\u0e34\u0e08\u0e01\u0e32\u0e23\u0e2d\u0e07\u0e04\u0e4c\u0e01\u0e23","parent_id":"900"}, {"id":"612","name_th":"\u0e1d\u0e48\u0e32\u0e22\u0e02\u0e49\u0e2d\u0e21\u0e39\u0e25\u0e01\u0e0f\u0e2b\u0e21\u0e32\u0e22","parent_id":"600"}, {"id":"1013","name_th":"\u0e1d\u0e48\u0e32\u0e22\u0e02\u0e32\u0e22","parent_id":"1000"}, {"id":"2908","name_th":"\u0e1d\u0e48\u0e32\u0e22\u0e02\u0e32\u0e22\u0e15\u0e31\u0e4b\u0e27\u0e40\u0e04\u0e23\u0e37\u0e48\u0e2d\u0e07\u0e1a\u0e34\u0e19","parent_id":"2900"}, {"id":"2405","name_th":"\u0e1d\u0e48\u0e32\u0e22\u0e02\u0e32\u0e22\u0e15\u0e48\u0e32\u0e07\u0e1b\u0e23\u0e30\u0e40\u0e17\u0e28","parent_id":"2400"}, {"id":"2408","name_th":"\u0e1d\u0e48\u0e32\u0e22\u0e02\u0e32\u0e22\u0e17\u0e32\u0e07\u0e42\u0e17\u0e23\u0e28\u0e31\u0e1e\u0e17\u0e4c","parent_id":"2400"}, {"id":"2208","name_th":"\u0e1d\u0e48\u0e32\u0e22\u0e02\u0e32\u0e22\u0e1b\u0e23\u0e30\u0e01\u0e31\u0e19\u0e1c\u0e48\u0e32\u0e19\u0e18\u0e19\u0e32\u0e04\u0e32\u0e23\u0e1e\u0e32\u0e13\u0e34\u0e0a\u0e22\u0e4c","parent_id":"2200"}, {"id":"1804","name_th":"\u0e1d\u0e48\u0e32\u0e22\u0e02\u0e32\u0e22\u0e2a\u0e34\u0e19\u0e04\u0e49\u0e32\u0e19\u0e33\u0e40\u0e02\u0e49\u0e32-\u0e2a\u0e48\u0e07\u0e2d\u0e2d\u0e01","parent_id":"1800"}, {"id":"3013","name_th":"\u0e1d\u0e48\u0e32\u0e22\u0e02\u0e32\u0e22\u0e42\u0e06\u0e29\u0e13\u0e32","parent_id":"3000"}, {"id":"3004","name_th":"\u0e1d\u0e48\u0e32\u0e22\u0e04\u0e23\u0e35\u0e40\u0e2d\u0e17\u0e35\u0e1f","parent_id":"3000"}, {"id":"1802","name_th":"\u0e1d\u0e48\u0e32\u0e22\u0e04\u0e25\u0e31\u0e07\u0e2a\u0e34\u0e19\u0e04\u0e49\u0e32","parent_id":"1800"}, {"id":"1707","name_th":"\u0e1d\u0e48\u0e32\u0e22\u0e04\u0e25\u0e31\u0e07\u0e2a\u0e34\u0e19\u0e04\u0e49\u0e32\u0e43\u0e19\u0e2d\u0e07\u0e04\u0e4c\u0e01\u0e23","parent_id":"1700"}, {"id":"507","name_th":"\u0e1d\u0e48\u0e32\u0e22\u0e04\u0e27\u0e1a\u0e04\u0e38\u0e21\/\u0e15\u0e23\u0e27\u0e08\u0e2a\u0e2d\u0e1a\u0e04\u0e38\u0e13\u0e20\u0e32\u0e1e","parent_id":"500"}, {"id":"324","name_th":"\u0e1d\u0e48\u0e32\u0e22\u0e04\u0e27\u0e1a\u0e04\u0e38\u0e21\u0e0b\u0e2d\u0e1f\u0e15\u0e4c\u0e41\u0e27\u0e23\u0e4c","parent_id":"300"}, {"id":"306","name_th":"\u0e1d\u0e48\u0e32\u0e22\u0e04\u0e27\u0e1a\u0e04\u0e38\u0e21\u0e14\u0e49\u0e27\u0e22\u0e04\u0e2d\u0e21\u0e1e\u0e34\u0e27\u0e40\u0e15\u0e2d\u0e23\u0e4c\u0e41\u0e25\u0e30\u0e01\u0e32\u0e23\u0e1b\u0e23\u0e30\u0e22\u0e38\u0e01\u0e15\u0e4c","parent_id":"300"}, {"id":"2912","name_th":"\u0e1d\u0e48\u0e32\u0e22\u0e04\u0e27\u0e32\u0e21\u0e1b\u0e25\u0e2d\u0e14\u0e20\u0e31\u0e22-\u0e2a\u0e34\u0e48\u0e07\u0e41\u0e27\u0e14\u0e25\u0e49\u0e2d\u0e21\u0e02\u0e2d\u0e07\u0e2a\u0e32\u0e22\u0e01\u0e32\u0e23\u0e1a\u0e34\u0e19","parent_id":"2900"}, {"id":"822","name_th":"\u0e1d\u0e48\u0e32\u0e22\u0e04\u0e27\u0e32\u0e21\u0e1b\u0e25\u0e2d\u0e14\u0e20\u0e31\u0e22-\u0e2a\u0e34\u0e48\u0e07\u0e41\u0e27\u0e14\u0e25\u0e49\u0e2d\u0e21\u0e43\u0e19\u0e2d\u0e32\u0e04\u0e32\u0e23","parent_id":"800"}, {"id":"309","name_th":"\u0e1d\u0e48\u0e32\u0e22\u0e04\u0e2d\u0e21\u0e1e\u0e34\u0e27\u0e40\u0e15\u0e2d\u0e23\u0e4c\u0e01\u0e23\u0e32\u0e1f\u0e1f\u0e34\u0e04","parent_id":"300"}, {"id":"307","name_th":"\u0e1d\u0e48\u0e32\u0e22\u0e04\u0e2d\u0e21\u0e1e\u0e34\u0e27\u0e40\u0e15\u0e2d\u0e23\u0e4c\u0e41\u0e25\u0e30\u0e40\u0e17\u0e04\u0e42\u0e19\u0e42\u0e25\u0e22\u0e35\u0e2a\u0e32\u0e23\u0e2a\u0e19\u0e40\u0e17\u0e28","parent_id":"300"}, {"id":"3002","name_th":"\u0e1d\u0e48\u0e32\u0e22\u0e04\u0e31\u0e14\u0e15\u0e31\u0e27\u0e41\u0e2a\u0e14\u0e07","parent_id":"3000"}, {"id":"106","name_th":"\u0e1d\u0e48\u0e32\u0e22\u0e04\u0e49\u0e32\u0e02\u0e32\u0e22\u0e1e\u0e37\u0e0a\u0e1c\u0e25\u0e17\u0e32\u0e07\u0e01\u0e32\u0e23\u0e40\u0e01\u0e29\u0e15\u0e23\u0e25\u0e48\u0e27\u0e07\u0e2b\u0e19\u0e49\u0e32","parent_id":"100"}, {"id":"1208","name_th":"\u0e1d\u0e48\u0e32\u0e22\u0e07\u0e32\u0e19\u0e02\u0e32\u0e22\u0e40\u0e17\u0e04\u0e19\u0e34\u0e04","parent_id":"1200"}, {"id":"3019","name_th":"\u0e1d\u0e48\u0e32\u0e22\u0e07\u0e32\u0e19\u0e1e\u0e34\u0e21\u0e1e\u0e4c","parent_id":"3000"}, {"id":"2905","name_th":"\u0e1d\u0e48\u0e32\u0e22\u0e08\u0e2d\u0e07\u0e15\u0e31\u0e4b\u0e27\u0e40\u0e04\u0e23\u0e37\u0e48\u0e2d\u0e07\u0e1a\u0e34\u0e19","parent_id":"2900"}, {"id":"1709","name_th":"\u0e1d\u0e48\u0e32\u0e22\u0e08\u0e31\u0e14\u0e01\u0e32\u0e23\u0e14\u0e39\u0e41\u0e25\u0e2a\u0e33\u0e19\u0e31\u0e01\u0e07\u0e32\u0e19","parent_id":"1700"}, {"id":"911","name_th":"\u0e1d\u0e48\u0e32\u0e22\u0e08\u0e31\u0e14\u0e01\u0e32\u0e23\u0e2b\u0e19\u0e35\u0e49\u0e41\u0e25\u0e30\u0e2a\u0e34\u0e19\u0e17\u0e23\u0e31\u0e1e\u0e22\u0e4c","parent_id":"900"}, {"id":"514","name_th":"\u0e1d\u0e48\u0e32\u0e22\u0e08\u0e31\u0e14\u0e01\u0e32\u0e23\u0e2b\u0e48\u0e27\u0e07\u0e42\u0e0b\u0e48\u0e2d\u0e38\u0e1b\u0e17\u0e32\u0e19","parent_id":"500"}, {"id":"1710","name_th":"\u0e1d\u0e48\u0e32\u0e22\u0e08\u0e31\u0e14\u0e01\u0e32\u0e23\u0e40\u0e2d\u0e01\u0e2a\u0e32\u0e23","parent_id":"1700"}, {"id":"1510","name_th":"\u0e1d\u0e48\u0e32\u0e22\u0e08\u0e31\u0e14\u0e01\u0e34\u0e08\u0e01\u0e23\u0e23\u0e21","parent_id":"1500"}, {"id":"3008","name_th":"\u0e1d\u0e48\u0e32\u0e22\u0e08\u0e31\u0e14\u0e01\u0e34\u0e08\u0e01\u0e23\u0e23\u0e21","parent_id":"3000"}, {"id":"1009","name_th":"\u0e1d\u0e48\u0e32\u0e22\u0e08\u0e31\u0e14\u0e01\u0e34\u0e08\u0e01\u0e23\u0e23\u0e21\u0e01\u0e32\u0e23\u0e15\u0e25\u0e32\u0e14","parent_id":"1000"}, {"id":"1807","name_th":"\u0e1d\u0e48\u0e32\u0e22\u0e08\u0e31\u0e14\u0e0b\u0e37\u0e49\u0e2d\u0e2a\u0e34\u0e19\u0e04\u0e49\u0e32\u0e19\u0e33\u0e40\u0e02\u0e49\u0e32\u0e41\u0e25\u0e30\u0e2a\u0e48\u0e07\u0e2d\u0e2d\u0e01","parent_id":"1800"}, {"id":"1004","name_th":"\u0e1d\u0e48\u0e32\u0e22\u0e08\u0e31\u0e14\u0e0b\u0e37\u0e49\u0e2d\u0e41\u0e25\u0e30\u0e14\u0e39\u0e41\u0e25\u0e2a\u0e34\u0e19\u0e04\u0e49\u0e32","parent_id":"1000"}, {"id":"3009","name_th":"\u0e1d\u0e48\u0e32\u0e22\u0e08\u0e31\u0e14\u0e2b\u0e19\u0e49\u0e32","parent_id":"3000"}, {"id":"508","name_th":"\u0e1d\u0e48\u0e32\u0e22\u0e14\u0e49\u0e32\u0e19\u0e04\u0e27\u0e32\u0e21\u0e1b\u0e25\u0e2d\u0e14\u0e20\u0e31\u0e22\/ \u0e2d\u0e32\u0e0a\u0e35\u0e27\u0e2d\u0e19\u0e32\u0e21\u0e31\u0e22","parent_id":"500"}, {"id":"1016","name_th":"\u0e1d\u0e48\u0e32\u0e22\u0e14\u0e39\u0e41\u0e25\u0e01\u0e32\u0e23\u0e02\u0e32\u0e22","parent_id":"1000"}, {"id":"1017","name_th":"\u0e1d\u0e48\u0e32\u0e22\u0e14\u0e39\u0e41\u0e25\u0e04\u0e25\u0e31\u0e07\u0e2a\u0e34\u0e19\u0e04\u0e49\u0e32\/\u0e04\u0e27\u0e1a\u0e04\u0e38\u0e21\u0e2a\u0e15\u0e4a\u0e2d\u0e01","parent_id":"1000"}, {"id":"1001","name_th":"\u0e1d\u0e48\u0e32\u0e22\u0e14\u0e39\u0e41\u0e25\u0e15\u0e23\u0e32\u0e2a\u0e34\u0e19\u0e04\u0e49\u0e32","parent_id":"1000"}, {"id":"923","name_th":"\u0e1d\u0e48\u0e32\u0e22\u0e14\u0e39\u0e41\u0e25\u0e17\u0e30\u0e40\u0e1a\u0e35\u0e22\u0e19\u0e1b\u0e23\u0e30\u0e27\u0e31\u0e15\u0e34","parent_id":"900"}, {"id":"1003","name_th":"\u0e1d\u0e48\u0e32\u0e22\u0e14\u0e39\u0e41\u0e25\u0e1c\u0e25\u0e34\u0e15\u0e20\u0e31\u0e13\u0e11\u0e4c","parent_id":"1000"}, {"id":"2406","name_th":"\u0e1d\u0e48\u0e32\u0e22\u0e14\u0e39\u0e41\u0e25\u0e25\u0e39\u0e01\u0e04\u0e49\u0e32\u0e23\u0e32\u0e22\u0e2a\u0e33\u0e04\u0e31\u0e0d","parent_id":"2400"}, {"id":"1401","name_th":"\u0e1d\u0e48\u0e32\u0e22\u0e14\u0e39\u0e41\u0e25\u0e40\u0e2d\u0e01\u0e2a\u0e32\u0e23\u0e43\u0e1a\u0e2a\u0e48\u0e07-\u0e23\u0e31\u0e1a\u0e2a\u0e34\u0e19\u0e04\u0e49\u0e32","parent_id":"1400"}, {"id":"201","name_th":"\u0e1d\u0e48\u0e32\u0e22\u0e14\u0e39\u0e41\u0e25\u0e41\u0e1c\u0e19\u0e01\u0e0a\u0e38\u0e1a","parent_id":"200"}, {"id":"811","name_th":"\u0e1d\u0e48\u0e32\u0e22\u0e15\u0e23\u0e27\u0e08\u0e07\u0e32\u0e19 \u0e41\u0e25\u0e30\u0e04\u0e27\u0e1a\u0e04\u0e38\u0e21\u0e01\u0e32\u0e23\u0e01\u0e48\u0e2d\u0e2a\u0e23\u0e49\u0e32\u0e07","parent_id":"800"}, {"id":"3006","name_th":"\u0e1d\u0e48\u0e32\u0e22\u0e15\u0e23\u0e27\u0e08\u0e1f\u0e34\u0e25\u0e21\u0e4c","parent_id":"3000"}, {"id":"919","name_th":"\u0e1d\u0e48\u0e32\u0e22\u0e15\u0e23\u0e27\u0e08\u0e2a\u0e2d\u0e1a\u0e01\u0e32\u0e23\u0e40\u0e07\u0e34\u0e19","parent_id":"900"}, {"id":"2906","name_th":"\u0e1d\u0e48\u0e32\u0e22\u0e15\u0e23\u0e27\u0e08\u0e2a\u0e2d\u0e1a\u0e04\u0e27\u0e32\u0e21\u0e1b\u0e25\u0e2d\u0e14\u0e20\u0e31\u0e22","parent_id":"2900"}, {"id":"2008","name_th":"\u0e1d\u0e48\u0e32\u0e22\u0e15\u0e23\u0e27\u0e08\u0e2a\u0e2d\u0e1a\u0e1a\u0e31\u0e0d\u0e0a\u0e35\u0e20\u0e32\u0e22\u0e43\u0e19","parent_id":"2000"}, {"id":"2005","name_th":"\u0e1d\u0e48\u0e32\u0e22\u0e15\u0e23\u0e27\u0e08\u0e2a\u0e2d\u0e1a\u0e20\u0e32\u0e22\u0e19\u0e2d\u0e01","parent_id":"2000"}, {"id":"2203","name_th":"\u0e1d\u0e48\u0e32\u0e22\u0e15\u0e23\u0e27\u0e08\u0e2a\u0e2d\u0e1a\u0e23\u0e31\u0e1a\u0e1b\u0e23\u0e30\u0e01\u0e31\u0e19\/\u0e2a\u0e34\u0e19\u0e44\u0e2b\u0e21","parent_id":"2200"}, {"id":"2007","name_th":"\u0e1d\u0e48\u0e32\u0e22\u0e15\u0e23\u0e27\u0e08\u0e2a\u0e2d\u0e1a\u0e23\u0e32\u0e22\u0e23\u0e31\u0e1a","parent_id":"2000"}, {"id":"605","name_th":"\u0e1d\u0e48\u0e32\u0e22\u0e15\u0e23\u0e27\u0e08\u0e2a\u0e2d\u0e1a\u0e41\u0e25\u0e30\u0e14\u0e39\u0e41\u0e25\u0e01\u0e33\u0e01\u0e31\u0e1a\u0e01\u0e0e\u0e2b\u0e21\u0e32\u0e22","parent_id":"600"}, {"id":"1903","name_th":"\u0e1d\u0e48\u0e32\u0e22\u0e15\u0e49\u0e2d\u0e19\u0e23\u0e31\u0e1a","parent_id":"1900"}, {"id":"1511","name_th":"\u0e1d\u0e48\u0e32\u0e22\u0e15\u0e49\u0e2d\u0e19\u0e23\u0e31\u0e1a\u0e2a\u0e48\u0e27\u0e19\u0e2b\u0e19\u0e49\u0e32","parent_id":"1500"}, {"id":"3103","name_th":"\u0e1d\u0e48\u0e32\u0e22\u0e15\u0e48\u0e32\u0e07\u0e1b\u0e23\u0e30\u0e40\u0e17\u0e28\u0e2a\u0e31\u0e21\u0e1e\u0e31\u0e19\u0e18\u0e4c","parent_id":"3100"}, {"id":"1706","name_th":"\u0e1d\u0e48\u0e32\u0e22\u0e15\u0e34\u0e14\u0e15\u0e48\u0e2d\u0e15\u0e48\u0e32\u0e07\u0e1b\u0e23\u0e30\u0e40\u0e17\u0e28","parent_id":"1700"}, {"id":"1509","name_th":"\u0e1d\u0e48\u0e32\u0e22\u0e15\u0e34\u0e14\u0e15\u0e48\u0e2d\u0e2a\u0e37\u0e48\u0e2d\u0e2a\u0e32\u0e23","parent_id":"1500"}, {"id":"820","name_th":"\u0e1d\u0e48\u0e32\u0e22\u0e15\u0e34\u0e14\u0e15\u0e31\u0e49\u0e07\/\u0e27\u0e31\u0e14\u0e1e\u0e37\u0e49\u0e19\u0e17\u0e35\u0e48","parent_id":"800"}, {"id":"916","name_th":"\u0e1d\u0e48\u0e32\u0e22\u0e15\u0e34\u0e14\u0e15\u0e32\u0e21\u0e2b\u0e19\u0e35\u0e49\u0e2a\u0e34\u0e19","parent_id":"900"}, {"id":"301","name_th":"\u0e1d\u0e48\u0e32\u0e22\u0e17\u0e14\u0e2a\u0e2d\u0e1a\u0e42\u0e1b\u0e23\u0e41\u0e01\u0e23\u0e21","parent_id":"300"}, {"id":"2503","name_th":"\u0e1d\u0e48\u0e32\u0e22\u0e17\u0e23\u0e31\u0e1e\u0e22\u0e32\u0e01\u0e23\u0e1a\u0e38\u0e04\u0e04\u0e25","parent_id":"2500"}, {"id":"3104","name_th":"\u0e1d\u0e48\u0e32\u0e22\u0e17\u0e30\u0e40\u0e1a\u0e35\u0e22\u0e19\u0e2a\u0e21\u0e32\u0e0a\u0e34\u0e01","parent_id":"3100"}, {"id":"1519","name_th":"\u0e1d\u0e48\u0e32\u0e22\u0e17\u0e33\u0e04\u0e27\u0e32\u0e21\u0e2a\u0e30\u0e2d\u0e32\u0e14","parent_id":"1500"}, {"id":"2609","name_th":"\u0e1d\u0e48\u0e32\u0e22\u0e17\u0e33\u0e04\u0e27\u0e32\u0e21\u0e2a\u0e30\u0e2d\u0e32\u0e14","parent_id":"2600"}, {"id":"1701","name_th":"\u0e1d\u0e48\u0e32\u0e22\u0e18\u0e38\u0e23\u0e01\u0e32\u0e23","parent_id":"1700"}, {"id":"817","name_th":"\u0e1d\u0e48\u0e32\u0e22\u0e18\u0e38\u0e23\u0e01\u0e32\u0e23\u0e42\u0e04\u0e23\u0e07\u0e01\u0e32\u0e23","parent_id":"800"}, {"id":"1516","name_th":"\u0e1d\u0e48\u0e32\u0e22\u0e18\u0e38\u0e23\u0e01\u0e34\u0e08\u0e2a\u0e1b\u0e32\/\u0e19\u0e27\u0e14","parent_id":"1500"}, {"id":"921","name_th":"\u0e1d\u0e48\u0e32\u0e22\u0e19\u0e31\u0e01\u0e25\u0e07\u0e17\u0e38\u0e19\u0e2a\u0e31\u0e21\u0e1e\u0e31\u0e19\u0e18\u0e4c","parent_id":"900"}, {"id":"2009","name_th":"\u0e1d\u0e48\u0e32\u0e22\u0e19\u0e31\u0e01\u0e25\u0e07\u0e17\u0e38\u0e19\u0e2a\u0e31\u0e21\u0e1e\u0e31\u0e19\u0e18\u0e4c","parent_id":"2000"}, {"id":"1803","name_th":"\u0e1d\u0e48\u0e32\u0e22\u0e19\u0e33\u0e40\u0e02\u0e49\u0e32-\u0e2a\u0e48\u0e07\u0e2d\u0e2d\u0e01\/\u0e1a\u0e35\u0e42\u0e2d\u0e44\u0e2d","parent_id":"1800"}, {"id":"608","name_th":"\u0e1d\u0e48\u0e32\u0e22\u0e19\u0e34\u0e15\u0e34\u0e01\u0e23\u0e23\u0e21\u0e2a\u0e31\u0e0d\u0e0d\u0e32","parent_id":"600"}, {"id":"2910","name_th":"\u0e1d\u0e48\u0e32\u0e22\u0e1a\u0e23\u0e34\u0e01\u0e32\u0e23\u0e20\u0e32\u0e04\u0e1e\u0e37\u0e49\u0e19\u0e14\u0e34\u0e19","parent_id":"2900"}, {"id":"2806","name_th":"\u0e1d\u0e48\u0e32\u0e22\u0e1a\u0e23\u0e34\u0e01\u0e32\u0e23\u0e20\u0e32\u0e04\u0e2a\u0e19\u0e32\u0e21","parent_id":"2800"}, {"id":"1902","name_th":"\u0e1d\u0e48\u0e32\u0e22\u0e1a\u0e23\u0e34\u0e01\u0e32\u0e23\u0e25\u0e39\u0e01\u0e04\u0e49\u0e32 \/ \u0e25\u0e39\u0e01\u0e04\u0e49\u0e32\u0e2a\u0e31\u0e21\u0e1e\u0e31\u0e19\u0e18\u0e4c","parent_id":"1900"}, {"id":"2403","name_th":"\u0e1d\u0e48\u0e32\u0e22\u0e1a\u0e23\u0e34\u0e01\u0e32\u0e23\u0e2b\u0e25\u0e31\u0e07\u0e01\u0e32\u0e23\u0e02\u0e32\u0e22","parent_id":"2400"}, {"id":"2302","name_th":"\u0e1d\u0e48\u0e32\u0e22\u0e1a\u0e23\u0e34\u0e2b\u0e32\u0e23","parent_id":"2300"}, {"id":"901","name_th":"\u0e1d\u0e48\u0e32\u0e22\u0e1a\u0e23\u0e34\u0e2b\u0e32\u0e23\/\u0e04\u0e27\u0e1a\u0e04\u0e38\u0e21\u0e01\u0e32\u0e23\u0e40\u0e07\u0e34\u0e19","parent_id":"900"}, {"id":"924","name_th":"\u0e1d\u0e48\u0e32\u0e22\u0e1a\u0e23\u0e34\u0e2b\u0e32\u0e23\u0e01\u0e2d\u0e07\u0e17\u0e38\u0e19","parent_id":"900"}, {"id":"925","name_th":"\u0e1d\u0e48\u0e32\u0e22\u0e1a\u0e23\u0e34\u0e2b\u0e32\u0e23\u0e04\u0e27\u0e32\u0e21\u0e40\u0e2a\u0e35\u0e48\u0e22\u0e07","parent_id":"900"}, {"id":"2410","name_th":"\u0e1d\u0e48\u0e32\u0e22\u0e1a\u0e23\u0e34\u0e2b\u0e32\u0e23\u0e07\u0e32\u0e19\u0e02\u0e32\u0e22","parent_id":"2400"}, {"id":"2314","name_th":"\u0e1d\u0e48\u0e32\u0e22\u0e1a\u0e23\u0e34\u0e2b\u0e32\u0e23\u0e15\u0e48\u0e32\u0e07\u0e1b\u0e23\u0e30\u0e40\u0e17\u0e28","parent_id":"2300"}, {"id":"1806","name_th":"\u0e1d\u0e48\u0e32\u0e22\u0e1a\u0e23\u0e34\u0e2b\u0e32\u0e23\u0e23\u0e30\u0e1a\u0e1a\u0e02\u0e19\u0e2a\u0e48\u0e07\u0e2a\u0e34\u0e19\u0e04\u0e49\u0e32","parent_id":"1800"}, {"id":"909","name_th":"\u0e1d\u0e48\u0e32\u0e22\u0e1a\u0e23\u0e34\u0e2b\u0e32\u0e23\u0e2a\u0e34\u0e19\u0e40\u0e0a\u0e37\u0e48\u0e2d","parent_id":"900"}, {"id":"2001","name_th":"\u0e1d\u0e48\u0e32\u0e22\u0e1a\u0e31\u0e0d\u0e0a\u0e35","parent_id":"2000"}, {"id":"2011","name_th":"\u0e1d\u0e48\u0e32\u0e22\u0e1a\u0e31\u0e0d\u0e0a\u0e35\u0e04\u0e25\u0e31\u0e07\u0e2a\u0e34\u0e19\u0e04\u0e49\u0e32","parent_id":"2000"}, {"id":"2004","name_th":"\u0e1d\u0e48\u0e32\u0e22\u0e1a\u0e31\u0e0d\u0e0a\u0e35\u0e15\u0e49\u0e19\u0e17\u0e38\u0e19","parent_id":"2000"}, {"id":"914","name_th":"\u0e1d\u0e48\u0e32\u0e22\u0e1a\u0e31\u0e15\u0e23\u0e40\u0e04\u0e23\u0e14\u0e34\u0e15","parent_id":"900"}, {"id":"2204","name_th":"\u0e1d\u0e48\u0e32\u0e22\u0e1b\u0e0e\u0e34\u0e1a\u0e31\u0e15\u0e34\u0e01\u0e32\u0e23","parent_id":"2200"}, {"id":"926","name_th":"\u0e1d\u0e48\u0e32\u0e22\u0e1b\u0e0f\u0e34\u0e1a\u0e31\u0e15\u0e34\u0e01\u0e32\u0e23\u0e14\u0e49\u0e32\u0e19\u0e40\u0e07\u0e34\u0e19\u0e42\u0e2d\u0e19\u0e41\u0e25\u0e30\u0e0a\u0e33\u0e23\u0e30\u0e40\u0e07\u0e34\u0e19","parent_id":"900"}, {"id":"3108","name_th":"\u0e1d\u0e48\u0e32\u0e22\u0e1b\u0e0f\u0e34\u0e1a\u0e31\u0e15\u0e34\u0e07\u0e32\u0e19\u0e42\u0e04\u0e23\u0e07\u0e01\u0e32\u0e23","parent_id":"3100"}, {"id":"2903","name_th":"\u0e1d\u0e48\u0e32\u0e22\u0e1b\u0e23\u0e30\u0e01\u0e31\u0e19\u0e04\u0e38\u0e13\u0e20\u0e32\u0e1e","parent_id":"2900"}, {"id":"1014","name_th":"\u0e1d\u0e48\u0e32\u0e22\u0e1b\u0e23\u0e30\u0e0a\u0e32\u0e2a\u0e31\u0e21\u0e1e\u0e31\u0e19\u0e18\u0e4c","parent_id":"1000"}, {"id":"1905","name_th":"\u0e1d\u0e48\u0e32\u0e22\u0e1b\u0e23\u0e30\u0e0a\u0e32\u0e2a\u0e31\u0e21\u0e1e\u0e31\u0e19\u0e18\u0e4c","parent_id":"1900"}, {"id":"502","name_th":"\u0e1d\u0e48\u0e32\u0e22\u0e1b\u0e23\u0e30\u0e2a\u0e32\u0e19\u0e07\u0e32\u0e19 ISO\/BOI","parent_id":"500"}, {"id":"1011","name_th":"\u0e1d\u0e48\u0e32\u0e22\u0e1b\u0e23\u0e30\u0e2a\u0e32\u0e19\u0e07\u0e32\u0e19\u0e01\u0e32\u0e23\u0e15\u0e25\u0e32\u0e14","parent_id":"1000"}, {"id":"203","name_th":"\u0e1d\u0e48\u0e32\u0e22\u0e1b\u0e23\u0e30\u0e2a\u0e32\u0e19\u0e07\u0e32\u0e19\u0e14\u0e49\u0e32\u0e19\u0e2d\u0e31\u0e0d\u0e21\u0e13\u0e35","parent_id":"200"}, {"id":"1801","name_th":"\u0e1d\u0e48\u0e32\u0e22\u0e1b\u0e23\u0e30\u0e2a\u0e32\u0e19\u0e07\u0e32\u0e19\u0e15\u0e48\u0e32\u0e07\u0e1b\u0e23\u0e30\u0e40\u0e17\u0e28","parent_id":"1800"}, {"id":"2407","name_th":"\u0e1d\u0e48\u0e32\u0e22\u0e1b\u0e23\u0e30\u0e2a\u0e32\u0e19\u0e07\u0e32\u0e19\u0e1d\u0e48\u0e32\u0e22\u0e02\u0e32\u0e22","parent_id":"2400"}, {"id":"803","name_th":"\u0e1d\u0e48\u0e32\u0e22\u0e1b\u0e23\u0e30\u0e40\u0e21\u0e34\u0e19\u0e23\u0e32\u0e04\u0e32","parent_id":"800"}, {"id":"2502","name_th":"\u0e1d\u0e48\u0e32\u0e22\u0e1b\u0e23\u0e36\u0e01\u0e29\u0e32\u0e07\u0e32\u0e19\u0e1a\u0e38\u0e04\u0e04\u0e25","parent_id":"2500"}, {"id":"511","name_th":"\u0e1d\u0e48\u0e32\u0e22\u0e1c\u0e25\u0e34\u0e15","parent_id":"500"}, {"id":"2411","name_th":"\u0e1d\u0e48\u0e32\u0e22\u0e1c\u0e39\u0e49\u0e08\u0e31\u0e14\u0e01\u0e32\u0e23\u0e07\u0e32\u0e19\u0e02\u0e32\u0e22","parent_id":"2400"}, {"id":"2904","name_th":"\u0e1d\u0e48\u0e32\u0e22\u0e1d\u0e48\u0e32\u0e22\u0e02\u0e19\u0e2a\u0e48\u0e07\u0e2a\u0e34\u0e19\u0e04\u0e49\u0e32\u0e41\u0e25\u0e30\u0e2a\u0e31\u0e21\u0e20\u0e32\u0e23\u0e30\u0e20\u0e32\u0e22\u0e43\u0e19\u0e2a\u0e19\u0e32\u0e21\u0e1a\u0e34\u0e19","parent_id":"2900"}, {"id":"2205","name_th":"\u0e1d\u0e48\u0e32\u0e22\u0e1d\u0e36\u0e01\u0e2d\u0e1a\u0e23\u0e21","parent_id":"2200"}, {"id":"2505","name_th":"\u0e1d\u0e48\u0e32\u0e22\u0e1d\u0e36\u0e01\u0e2d\u0e1a\u0e23\u0e21","parent_id":"2500"}, {"id":"2911","name_th":"\u0e1d\u0e48\u0e32\u0e22\u0e1d\u0e36\u0e01\u0e2d\u0e1a\u0e23\u0e21\u0e02\u0e2d\u0e07\u0e2a\u0e32\u0e22\u0e01\u0e32\u0e23\u0e1a\u0e34\u0e19","parent_id":"2900"}, {"id":"2507","name_th":"\u0e1d\u0e48\u0e32\u0e22\u0e1e\u0e19\u0e31\u0e01\u0e07\u0e32\u0e19\u0e2a\u0e31\u0e21\u0e1e\u0e31\u0e19\u0e18\u0e4c\/ \u0e2a\u0e37\u0e48\u0e2d\u0e2a\u0e32\u0e23\u0e20\u0e32\u0e22\u0e43\u0e19\u0e2d\u0e07\u0e04\u0e4c\u0e01\u0e23","parent_id":"2500"}, {"id":"302","name_th":"\u0e1d\u0e48\u0e32\u0e22\u0e1e\u0e31\u0e12\u0e19\u0e32\u0e0b\u0e2d\u0e1f\u0e17\u0e4c\u0e41\u0e27\u0e23\u0e4c","parent_id":"300"}, {"id":"303","name_th":"\u0e1d\u0e48\u0e32\u0e22\u0e1e\u0e31\u0e12\u0e19\u0e32\u0e0b\u0e2d\u0e1f\u0e17\u0e4c\u0e41\u0e27\u0e23\u0e4c\u0e21\u0e37\u0e2d\u0e16\u0e37\u0e2d","parent_id":"300"}, {"id":"2509","name_th":"\u0e1d\u0e48\u0e32\u0e22\u0e1e\u0e31\u0e12\u0e19\u0e32\u0e17\u0e23\u0e31\u0e1e\u0e22\u0e32\u0e01\u0e23\u0e1a\u0e38\u0e04\u0e04\u0e25","parent_id":"2500"}, {"id":"1607","name_th":"\u0e1d\u0e48\u0e32\u0e22\u0e1e\u0e31\u0e12\u0e19\u0e32\u0e18\u0e38\u0e23\u0e01\u0e34\u0e08","parent_id":"1600"}, {"id":"304","name_th":"\u0e1d\u0e48\u0e32\u0e22\u0e1e\u0e31\u0e12\u0e19\u0e32\u0e42\u0e1b\u0e23\u0e41\u0e01\u0e23\u0e21\u0e14\u0e49\u0e27\u0e22\u0e20\u0e32\u0e29\u0e32\u0e08\u0e32\u0e27\u0e32","parent_id":"300"}, {"id":"2207","name_th":"\u0e1d\u0e48\u0e32\u0e22\u0e1e\u0e34\u0e08\u0e32\u0e23\u0e13\u0e32\u0e23\u0e31\u0e1a\u0e1b\u0e23\u0e30\u0e01\u0e31\u0e19","parent_id":"2200"}, {"id":"3018","name_th":"\u0e1d\u0e48\u0e32\u0e22\u0e1e\u0e34\u0e2a\u0e39\u0e08\u0e19\u0e4c\u0e2d\u0e31\u0e01\u0e29\u0e23","parent_id":"3000"}, {"id":"2006","name_th":"\u0e1d\u0e48\u0e32\u0e22\u0e23\u0e30\u0e14\u0e21\u0e17\u0e38\u0e19","parent_id":"2000"}, {"id":"910","name_th":"\u0e1d\u0e48\u0e32\u0e22\u0e23\u0e30\u0e14\u0e21\u0e40\u0e07\u0e34\u0e19\u0e1d\u0e32\u0e01","parent_id":"900"}, {"id":"813","name_th":"\u0e1d\u0e48\u0e32\u0e22\u0e23\u0e31\u0e01\u0e29\u0e32\u0e04\u0e27\u0e32\u0e21\u0e1b\u0e25\u0e2d\u0e14\u0e20\u0e31\u0e22","parent_id":"800"}, {"id":"2610","name_th":"\u0e1d\u0e48\u0e32\u0e22\u0e23\u0e31\u0e01\u0e29\u0e32\u0e04\u0e27\u0e32\u0e21\u0e1b\u0e25\u0e2d\u0e14\u0e20\u0e31\u0e22","parent_id":"2600"}, {"id":"413","name_th":"\u0e1d\u0e48\u0e32\u0e22\u0e23\u0e31\u0e07\u0e2a\u0e35\u0e27\u0e34\u0e17\u0e22\u0e32","parent_id":"400"}, {"id":"512","name_th":"\u0e1d\u0e48\u0e32\u0e22\u0e27\u0e31\u0e15\u0e16\u0e38\u0e14\u0e34\u0e1a","parent_id":"500"}, {"id":"506","name_th":"\u0e1d\u0e48\u0e32\u0e22\u0e27\u0e32\u0e07\u0e41\u0e1c\u0e19\u0e01\u0e32\u0e23\u0e1c\u0e25\u0e34\u0e15","parent_id":"500"}, {"id":"920","name_th":"\u0e1d\u0e48\u0e32\u0e22\u0e27\u0e32\u0e07\u0e41\u0e1c\u0e19\u0e01\u0e32\u0e23\u0e25\u0e07\u0e17\u0e38\u0e19","parent_id":"900"}, {"id":"913","name_th":"\u0e1d\u0e48\u0e32\u0e22\u0e27\u0e32\u0e07\u0e41\u0e1c\u0e19\u0e01\u0e32\u0e23\u0e40\u0e07\u0e34\u0e19","parent_id":"900"}, {"id":"902","name_th":"\u0e1d\u0e48\u0e32\u0e22\u0e27\u0e32\u0e13\u0e34\u0e0a\u0e18\u0e19\u0e01\u0e34\u0e08","parent_id":"900"}, {"id":"1015","name_th":"\u0e1d\u0e48\u0e32\u0e22\u0e27\u0e34\u0e08\u0e31\u0e22\u0e15\u0e25\u0e32\u0e14","parent_id":"1000"}, {"id":"1207","name_th":"\u0e1d\u0e48\u0e32\u0e22\u0e27\u0e34\u0e08\u0e31\u0e22\u0e41\u0e25\u0e30\u0e1e\u0e31\u0e12\u0e19\u0e32","parent_id":"1200"}, {"id":"1006","name_th":"\u0e1d\u0e48\u0e32\u0e22\u0e27\u0e34\u0e08\u0e31\u0e22\u0e41\u0e25\u0e30\u0e1e\u0e31\u0e12\u0e19\u0e32\u0e1c\u0e25\u0e34\u0e15\u0e20\u0e31\u0e13\u0e11\u0e4c","parent_id":"1000"}, {"id":"918","name_th":"\u0e1d\u0e48\u0e32\u0e22\u0e27\u0e34\u0e40\u0e04\u0e23\u0e32\u0e30\u0e2b\u0e4c\u0e01\u0e32\u0e23\u0e40\u0e07\u0e34\u0e19","parent_id":"900"}, {"id":"319","name_th":"\u0e1d\u0e48\u0e32\u0e22\u0e27\u0e34\u0e40\u0e04\u0e23\u0e32\u0e30\u0e2b\u0e4c\u0e23\u0e30\u0e1a\u0e1a\u0e2a\u0e32\u0e23\u0e2a\u0e19\u0e40\u0e17\u0e28","parent_id":"300"}, {"id":"2010","name_th":"\u0e1d\u0e48\u0e32\u0e22\u0e27\u0e34\u0e40\u0e04\u0e23\u0e32\u0e30\u0e2b\u0e4c\u0e23\u0e32\u0e04\u0e32","parent_id":"2000"}, {"id":"611","name_th":"\u0e1d\u0e48\u0e32\u0e22\u0e2a\u0e48\u0e07\u0e1f\u0e49\u0e2d\u0e07\u0e04\u0e14\u0e35","parent_id":"600"}, {"id":"2209","name_th":"\u0e1d\u0e48\u0e32\u0e22\u0e2a\u0e16\u0e34\u0e15\u0e34\u0e1b\u0e23\u0e30\u0e01\u0e31\u0e19\u0e20\u0e31\u0e22","parent_id":"2200"}, {"id":"922","name_th":"\u0e1d\u0e48\u0e32\u0e22\u0e2a\u0e19\u0e31\u0e1a\u0e2a\u0e19\u0e38\u0e19\u0e01\u0e32\u0e23\u0e1b\u0e0e\u0e34\u0e1a\u0e31\u0e15\u0e34\u0e01\u0e32\u0e23","parent_id":"900"}, {"id":"2508","name_th":"\u0e1d\u0e48\u0e32\u0e22\u0e2a\u0e23\u0e23\u0e2b\u0e32\u0e1a\u0e38\u0e04\u0e25\u0e32\u0e01\u0e23","parent_id":"2500"}, {"id":"609","name_th":"\u0e1d\u0e48\u0e32\u0e22\u0e2a\u0e48\u0e27\u0e19\u0e1a\u0e31\u0e07\u0e04\u0e31\u0e1a\u0e04\u0e14\u0e35\u0e41\u0e25\u0e30\u0e2a\u0e34\u0e19\u0e17\u0e23\u0e31\u0e1e\u0e22\u0e4c","parent_id":"600"}, {"id":"2504","name_th":"\u0e1d\u0e48\u0e32\u0e22\u0e2a\u0e27\u0e31\u0e2a\u0e14\u0e34\u0e01\u0e32\u0e23\u0e41\u0e25\u0e30\u0e1c\u0e25\u0e15\u0e2d\u0e1a\u0e41\u0e17\u0e19","parent_id":"2500"}, {"id":"509","name_th":"\u0e1d\u0e48\u0e32\u0e22\u0e2a\u0e33\u0e23\u0e27\u0e08","parent_id":"500"}, {"id":"2012","name_th":"\u0e1d\u0e48\u0e32\u0e22\u0e2a\u0e34\u0e17\u0e18\u0e34\u0e1b\u0e23\u0e30\u0e42\u0e22\u0e0a\u0e19\u0e4c\u0e41\u0e25\u0e30\u0e20\u0e32\u0e29\u0e35\u0e2d\u0e32\u0e01\u0e23","parent_id":"2000"}, {"id":"410","name_th":"\u0e1d\u0e48\u0e32\u0e22\u0e2a\u0e34\u0e19\u0e04\u0e49\u0e32\u0e40\u0e27\u0e0a\u0e20\u0e31\u0e13\u0e11\u0e4c\/ \u0e40\u0e2a\u0e23\u0e34\u0e21\u0e2a\u0e38\u0e02\u0e20\u0e32\u0e1e","parent_id":"400"}, {"id":"907","name_th":"\u0e1d\u0e48\u0e32\u0e22\u0e2a\u0e34\u0e19\u0e40\u0e0a\u0e37\u0e48\u0e2d\u0e23\u0e16\u0e22\u0e19\u0e15\u0e4c","parent_id":"900"}, {"id":"404","name_th":"\u0e1d\u0e48\u0e32\u0e22\u0e2a\u0e38\u0e02\u0e20\u0e32\u0e1e\u0e08\u0e34\u0e15","parent_id":"400"}, {"id":"818","name_th":"\u0e1d\u0e48\u0e32\u0e22\u0e2a\u0e42\u0e15\u0e23\u0e4c","parent_id":"800"}, {"id":"903","name_th":"\u0e1d\u0e48\u0e32\u0e22\u0e2b\u0e25\u0e31\u0e01\u0e17\u0e23\u0e31\u0e1e\u0e22\u0e4c-\u0e14\u0e35\u0e25\u0e40\u0e25\u0e2d\u0e23\u0e4c \u0e41\u0e25\u0e30\u0e04\u0e49\u0e32\u0e2b\u0e25\u0e31\u0e01\u0e17\u0e23\u0e31\u0e1e\u0e22\u0e4c (\u0e42\u0e1a\u0e23\u0e01\u0e40\u0e01\u0e2d\u0e23\u0e4c)","parent_id":"900"}, {"id":"1503","name_th":"\u0e1d\u0e48\u0e32\u0e22\u0e2b\u0e49\u0e2d\u0e07\u0e08\u0e31\u0e14\u0e40\u0e25\u0e35\u0e49\u0e22\u0e07\/ \u0e2a\u0e31\u0e21\u0e21\u0e19\u0e32","parent_id":"1500"}, {"id":"1206","name_th":"\u0e1d\u0e48\u0e32\u0e22\u0e2b\u0e49\u0e2d\u0e07\u0e41\u0e25\u0e47\u0e1b","parent_id":"1200"}, {"id":"912","name_th":"\u0e1d\u0e48\u0e32\u0e22\u0e2d\u0e19\u0e38\u0e21\u0e31\u0e15\u0e34\u0e23\u0e32\u0e22\u0e01\u0e32\u0e23\u0e41\u0e25\u0e30\u0e15\u0e23\u0e27\u0e08\u0e2a\u0e2d\u0e1a\u0e17\u0e38\u0e08\u0e23\u0e34\u0e15","parent_id":"900"}, {"id":"703","name_th":"\u0e1d\u0e48\u0e32\u0e22\u0e2d\u0e2d\u0e01\u0e41\u0e1a\u0e1a\u0e1c\u0e25\u0e34\u0e15\u0e20\u0e31\u0e13\u0e11\u0e4c","parent_id":"700"}, {"id":"1502","name_th":"\u0e1d\u0e48\u0e32\u0e22\u0e2d\u0e32\u0e2b\u0e32\u0e23\u0e41\u0e25\u0e30\u0e40\u0e04\u0e23\u0e37\u0e48\u0e2d\u0e07\u0e14\u0e37\u0e48\u0e21\/ \u0e20\u0e31\u0e15\u0e15\u0e32\u0e04\u0e32\u0e23","parent_id":"1500"}, {"id":"513","name_th":"\u0e1d\u0e48\u0e32\u0e22\u0e40\u0e02\u0e35\u0e22\u0e19\u0e41\u0e1a\u0e1a","parent_id":"500"}, {"id":"804","name_th":"\u0e1d\u0e48\u0e32\u0e22\u0e40\u0e02\u0e35\u0e22\u0e19\u0e41\u0e1a\u0e1a","parent_id":"800"}, {"id":"3003","name_th":"\u0e1d\u0e48\u0e32\u0e22\u0e40\u0e02\u0e35\u0e22\u0e19\u0e42\u0e06\u0e29\u0e13\u0e32","parent_id":"3000"}, {"id":"2815","name_th":"\u0e1d\u0e48\u0e32\u0e22\u0e40\u0e17\u0e04\u0e19\u0e34\u0e04","parent_id":"2800"}, {"id":"614","name_th":"\u0e1d\u0e48\u0e32\u0e22\u0e40\u0e23\u0e48\u0e07\u0e23\u0e31\u0e14\u0e2b\u0e19\u0e35\u0e49\u0e2a\u0e34\u0e19","parent_id":"600"}, {"id":"604","name_th":"\u0e1d\u0e48\u0e32\u0e22\u0e40\u0e23\u0e35\u0e22\u0e01\u0e23\u0e49\u0e2d\u0e07\u0e2a\u0e34\u0e19\u0e44\u0e2b\u0e21\u0e17\u0e14\u0e41\u0e17\u0e19","parent_id":"600"}, {"id":"3015","name_th":"\u0e1d\u0e48\u0e32\u0e22\u0e41\u0e17\u0e23\u0e1f\u0e1f\u0e34\u0e04\u0e41\u0e25\u0e30\u0e02\u0e49\u0e2d\u0e21\u0e39\u0e25","parent_id":"3000"}, {"id":"1005","name_th":"\u0e1d\u0e48\u0e32\u0e22\u0e41\u0e19\u0e30\u0e19\u0e33\u0e2a\u0e34\u0e19\u0e04\u0e49\u0e32","parent_id":"1000"}, {"id":"1008","name_th":"\u0e1d\u0e48\u0e32\u0e22\u0e42\u0e06\u0e29\u0e13\u0e32","parent_id":"1000"}, {"id":"3001","name_th":"\u0e1d\u0e48\u0e32\u0e22\u0e42\u0e06\u0e29\u0e13\u0e32","parent_id":"3000"}, {"id":"2607","name_th":"\u0e1e\u0e19\u0e31\u0e01\u0e07\u0e32\u0e19\u0e02\u0e31\u0e1a\u0e23\u0e16\u0e17\u0e31\u0e48\u0e27\u0e44\u0e1b\/\u0e23\u0e16\u0e1a\u0e23\u0e23\u0e17\u0e38\u0e01","parent_id":"2600"}, {"id":"2608","name_th":"\u0e1e\u0e19\u0e31\u0e01\u0e07\u0e32\u0e19\u0e02\u0e31\u0e1a\u0e23\u0e16\u0e1c\u0e39\u0e49\u0e1a\u0e23\u0e34\u0e2b\u0e32\u0e23","parent_id":"2600"}, {"id":"2603","name_th":"\u0e1e\u0e19\u0e31\u0e01\u0e07\u0e32\u0e19\u0e02\u0e31\u0e1a\u0e42\u0e21\u0e1a\u0e32\u0e22\u0e25\u0e4c\u0e40\u0e04\u0e23\u0e19\/\u0e23\u0e16\u0e40\u0e17\u0e23\u0e04\u0e40\u0e15\u0e2d\u0e23\u0e4c","parent_id":"2600"}, {"id":"2402","name_th":"\u0e1e\u0e19\u0e31\u0e01\u0e07\u0e32\u0e19\u0e02\u0e32\u0e22 PC","parent_id":"2400"}, {"id":"1513","name_th":"\u0e1e\u0e19\u0e31\u0e01\u0e07\u0e32\u0e19\u0e02\u0e32\u0e22\u0e2a\u0e21\u0e32\u0e0a\u0e34\u0e01","parent_id":"1500"}, {"id":"1309","name_th":"\u0e1e\u0e19\u0e31\u0e01\u0e07\u0e32\u0e19\u0e02\u0e32\u0e22\u0e2b\u0e19\u0e49\u0e32\u0e23\u0e49\u0e32\u0e19","parent_id":"1300"}, {"id":"3302","name_th":"\u0e1e\u0e19\u0e31\u0e01\u0e07\u0e32\u0e19\u0e04\u0e35\u0e22\u0e4c\u0e02\u0e49\u0e2d\u0e21\u0e39\u0e25","parent_id":"3300"}, {"id":"706","name_th":"\u0e1e\u0e19\u0e31\u0e01\u0e07\u0e32\u0e19\u0e14\u0e35\u0e40\u0e17\u0e25\u0e25\u0e32\u0e22\u0e1c\u0e49\u0e32","parent_id":"700"}, {"id":"2907","name_th":"\u0e1e\u0e19\u0e31\u0e01\u0e07\u0e32\u0e19\u0e15\u0e49\u0e2d\u0e19\u0e23\u0e31\u0e1a\u0e1a\u0e19\u0e40\u0e04\u0e23\u0e37\u0e48\u0e2d\u0e07\u0e1a\u0e34\u0e19","parent_id":"2900"}, {"id":"420","name_th":"\u0e1e\u0e19\u0e31\u0e01\u0e07\u0e32\u0e19\u0e1a\u0e23\u0e34\u0e01\u0e32\u0e23\u0e17\u0e33\u0e17\u0e23\u0e35\u0e15\u0e40\u0e21\u0e49\u0e19\u0e15\u0e4c","parent_id":"400"}, {"id":"3301","name_th":"\u0e1e\u0e19\u0e31\u0e01\u0e07\u0e32\u0e19\u0e1e\u0e32\u0e23\u0e4c\u0e17\u0e44\u0e17\u0e21\u0e4c","parent_id":"3300"}, {"id":"2601","name_th":"\u0e1e\u0e19\u0e31\u0e01\u0e07\u0e32\u0e19\u0e23\u0e31\u0e1a-\u0e2a\u0e48\u0e07\u0e40\u0e2d\u0e01\u0e2a\u0e32\u0e23","parent_id":"2600"}, {"id":"1507","name_th":"\u0e1e\u0e19\u0e31\u0e01\u0e07\u0e32\u0e19\u0e40\u0e01\u0e47\u0e1a\u0e40\u0e07\u0e34\u0e19","parent_id":"1500"}, {"id":"702","name_th":"\u0e1e\u0e19\u0e31\u0e01\u0e07\u0e32\u0e19\u0e40\u0e02\u0e35\u0e22\u0e19\u0e41\u0e1a\u0e1a (\u0e40\u0e2a\u0e37\u0e49\u0e2d\u0e1c\u0e49\u0e32)","parent_id":"700"}, {"id":"1501","name_th":"\u0e1e\u0e19\u0e31\u0e01\u0e07\u0e32\u0e19\u0e40\u0e2a\u0e34\u0e23\u0e4c\u0e1f","parent_id":"1500"}, {"id":"1505","name_th":"\u0e1e\u0e19\u0e31\u0e01\u0e07\u0e32\u0e19\u0e42\u0e23\u0e07\u0e41\u0e23\u0e21","parent_id":"1500"}, {"id":"1512","name_th":"\u0e1e\u0e19\u0e31\u0e01\u0e07\u0e32\u0e19\u0e43\u0e19\u0e04\u0e23\u0e31\u0e27","parent_id":"1500"}, {"id":"405","name_th":"\u0e1e\u0e22\u0e32\u0e1a\u0e32\u0e25","parent_id":"400"}, {"id":"1906","name_th":"\u0e1e\u0e23\u0e34\u0e4a\u0e15\u0e15\u0e35\u0e49\/ \u0e1e\u0e34\u0e18\u0e35\u0e01\u0e23\/ \u0e1e\u0e19\u0e31\u0e01\u0e07\u0e32\u0e19\u0e1e\u0e35 \u0e0b\u0e35","parent_id":"1900"}, {"id":"2101","name_th":"\u0e1e\u0e23\u0e34\u0e4a\u0e15\u0e15\u0e35\u0e49\/ \u0e1e\u0e34\u0e18\u0e35\u0e01\u0e23\/ \u0e1e\u0e19\u0e31\u0e01\u0e07\u0e32\u0e19\u0e1e\u0e35 \u0e0b\u0e35","parent_id":"2100"}, {"id":"2401","name_th":"\u0e1e\u0e23\u0e34\u0e4a\u0e15\u0e15\u0e35\u0e49\/ \u0e1e\u0e34\u0e18\u0e35\u0e01\u0e23\/ \u0e1e\u0e19\u0e31\u0e01\u0e07\u0e32\u0e19\u0e1e\u0e35 \u0e0b\u0e35","parent_id":"2400"}, {"id":"2605","name_th":"\u0e1e\u0e35\u0e48\u0e40\u0e25\u0e35\u0e49\u0e22\u0e07\u0e14\u0e39\u0e41\u0e25\u0e40\u0e14\u0e47\u0e01","parent_id":"2600"}, {"id":"102","name_th":"\u0e20\u0e39\u0e21\u0e34\u0e17\u0e31\u0e28\u0e19\u0e4c\u0e2f","parent_id":"100"}, {"id":"815","name_th":"\u0e20\u0e39\u0e21\u0e34\u0e2a\u0e16\u0e32\u0e1b\u0e31\u0e15\u0e22\u0e4c","parent_id":"800"}, {"id":"1504","name_th":"\u0e21\u0e31\u0e04\u0e04\u0e38\u0e40\u0e17\u0e28\u0e01\u0e4c","parent_id":"1500"}, {"id":"808","name_th":"\u0e21\u0e31\u0e13\u0e11\u0e19\u0e32\u0e01\u0e23","parent_id":"800"}, {"id":"5099","name_th":"\u0e22\u0e31\u0e07\u0e44\u0e21\u0e48\u0e23\u0e30\u0e1a\u0e38","parent_id":"5000"}, {"id":"2311","name_th":"\u0e23\u0e2d\u0e07\u0e1b\u0e23\u0e30\u0e18\u0e32\u0e19\u0e1a\u0e23\u0e34\u0e29\u0e31\u0e17","parent_id":"2300"}, {"id":"2312","name_th":"\u0e23\u0e2d\u0e07\u0e1c\u0e39\u0e49\u0e08\u0e31\u0e14\u0e01\u0e32\u0e23","parent_id":"2300"}, {"id":"2701","name_th":"\u0e25\u0e48\u0e32\u0e21","parent_id":"2700"}, {"id":"2202","name_th":"\u0e27\u0e34\u0e17\u0e22\u0e32\u0e01\u0e23\/ \u0e1c\u0e39\u0e49\u0e40\u0e0a\u0e35\u0e48\u0e22\u0e27\u0e0a\u0e32\u0e0d\u0e1e\u0e34\u0e40\u0e28\u0e29","parent_id":"2200"}, {"id":"1205","name_th":"\u0e27\u0e34\u0e17\u0e22\u0e32\u0e28\u0e32\u0e2a\u0e15\u0e23\u0e4c\u0e2d\u0e32\u0e2b\u0e32\u0e23","parent_id":"1200"}, {"id":"2831","name_th":"\u0e27\u0e34\u0e28\u0e27\u0e01\u0e23\u0e01\u0e32\u0e23\u0e27\u0e31\u0e14\u0e04\u0e38\u0e21","parent_id":"2800"}, {"id":"2833","name_th":"\u0e27\u0e34\u0e28\u0e27\u0e01\u0e23\u0e01\u0e32\u0e23\u0e40\u0e08\u0e32\u0e30","parent_id":"2800"}, {"id":"2837","name_th":"\u0e27\u0e34\u0e28\u0e27\u0e01\u0e23\u0e02\u0e38\u0e14\u0e40\u0e08\u0e32\u0e30 (\u0e2b\u0e25\u0e48\u0e2d\u0e25\u0e37\u0e48\u0e19\u0e43\u0e19\u0e01\u0e32\u0e23\u0e02\u0e38\u0e14)","parent_id":"2800"}, {"id":"2826","name_th":"\u0e27\u0e34\u0e28\u0e27\u0e01\u0e23\u0e04\u0e2d\u0e21\u0e1e\u0e34\u0e27\u0e40\u0e15\u0e2d\u0e23\u0e4c","parent_id":"2800"}, {"id":"2814","name_th":"\u0e27\u0e34\u0e28\u0e27\u0e01\u0e23\u0e07\u0e32\u0e19\u0e23\u0e30\u0e1a\u0e1a","parent_id":"2800"}, {"id":"2822","name_th":"\u0e27\u0e34\u0e28\u0e27\u0e01\u0e23\u0e0b\u0e48\u0e2d\u0e21\u0e1a\u0e33\u0e23\u0e38\u0e07","parent_id":"2800"}, {"id":"2824","name_th":"\u0e27\u0e34\u0e28\u0e27\u0e01\u0e23\u0e14\u0e49\u0e32\u0e19\u0e01\u0e23\u0e30\u0e1a\u0e27\u0e19\u0e01\u0e32\u0e23","parent_id":"2800"}, {"id":"2830","name_th":"\u0e27\u0e34\u0e28\u0e27\u0e01\u0e23\u0e14\u0e49\u0e32\u0e19\u0e01\u0e32\u0e23\u0e08\u0e31\u0e14\u0e01\u0e32\u0e23\u0e42\u0e0b\u0e48\u0e2d\u0e38\u0e1b\u0e17\u0e32\u0e19","parent_id":"2800"}, {"id":"317","name_th":"\u0e27\u0e34\u0e28\u0e27\u0e01\u0e23\u0e14\u0e49\u0e32\u0e19\u0e0b\u0e2d\u0e1f\u0e15\u0e4c\u0e41\u0e27\u0e23\u0e4c","parent_id":"300"}, {"id":"310","name_th":"\u0e27\u0e34\u0e28\u0e27\u0e01\u0e23\u0e14\u0e49\u0e32\u0e19\u0e2e\u0e32\u0e23\u0e4c\u0e14\u0e41\u0e27\u0e23\u0e4c","parent_id":"300"}, {"id":"2838","name_th":"\u0e27\u0e34\u0e28\u0e27\u0e01\u0e23\u0e18\u0e23\u0e13\u0e35\u0e27\u0e34\u0e17\u0e22\u0e32","parent_id":"2800"}, {"id":"2812","name_th":"\u0e27\u0e34\u0e28\u0e27\u0e01\u0e23\u0e1b\u0e23\u0e30\u0e01\u0e31\u0e19\u0e04\u0e38\u0e13\u0e20\u0e32\u0e1e\/\u0e04\u0e27\u0e1a\u0e04\u0e38\u0e21\u0e04\u0e38\u0e13\u0e20\u0e32\u0e1e","parent_id":"2800"}, {"id":"2828","name_th":"\u0e27\u0e34\u0e28\u0e27\u0e01\u0e23\u0e1b\u0e23\u0e30\u0e08\u0e33\u0e41\u0e1c\u0e07\u0e04\u0e27\u0e1a\u0e04\u0e38\u0e21","parent_id":"2800"}, {"id":"2827","name_th":"\u0e27\u0e34\u0e28\u0e27\u0e01\u0e23\u0e1b\u0e34\u0e42\u0e15\u0e23\u0e40\u0e25\u0e35\u0e22\u0e21","parent_id":"2800"}, {"id":"2813","name_th":"\u0e27\u0e34\u0e28\u0e27\u0e01\u0e23\u0e1d\u0e48\u0e32\u0e22\u0e02\u0e32\u0e22","parent_id":"2800"}, {"id":"316","name_th":"\u0e27\u0e34\u0e28\u0e27\u0e01\u0e23\u0e1d\u0e48\u0e32\u0e22\u0e02\u0e32\u0e22\/\u0e1e\u0e19\u0e31\u0e01\u0e07\u0e32\u0e19\u0e02\u0e32\u0e22 IT","parent_id":"300"}, {"id":"2823","name_th":"\u0e27\u0e34\u0e28\u0e27\u0e01\u0e23\u0e1d\u0e48\u0e32\u0e22\u0e1a\u0e23\u0e34\u0e01\u0e32\u0e23","parent_id":"2800"}, {"id":"1203","name_th":"\u0e27\u0e34\u0e28\u0e27\u0e01\u0e23\u0e1e\u0e25\u0e31\u0e07\u0e07\u0e32\u0e19","parent_id":"1200"}, {"id":"2804","name_th":"\u0e27\u0e34\u0e28\u0e27\u0e01\u0e23\u0e1e\u0e25\u0e31\u0e07\u0e07\u0e32\u0e19","parent_id":"2800"}, {"id":"2825","name_th":"\u0e27\u0e34\u0e28\u0e27\u0e01\u0e23\u0e22\u0e32\u0e19\u0e22\u0e19\u0e15\u0e4c","parent_id":"2800"}, {"id":"505","name_th":"\u0e27\u0e34\u0e28\u0e27\u0e01\u0e23\u0e23\u0e21\u0e01\u0e32\u0e23\u0e1c\u0e25\u0e34\u0e15","parent_id":"500"}, {"id":"313","name_th":"\u0e27\u0e34\u0e28\u0e27\u0e01\u0e23\u0e23\u0e30\u0e1a\u0e1a\u0e40\u0e04\u0e23\u0e37\u0e2d\u0e02\u0e48\u0e32\u0e22","parent_id":"300"}, {"id":"806","name_th":"\u0e27\u0e34\u0e28\u0e27\u0e01\u0e23\u0e2a\u0e19\u0e32\u0e21","parent_id":"800"}, {"id":"816","name_th":"\u0e27\u0e34\u0e28\u0e27\u0e01\u0e23\u0e2a\u0e33\u0e23\u0e27\u0e08","parent_id":"800"}, {"id":"2821","name_th":"\u0e27\u0e34\u0e28\u0e27\u0e01\u0e23\u0e2a\u0e33\u0e23\u0e27\u0e08","parent_id":"2800"}, {"id":"805","name_th":"\u0e27\u0e34\u0e28\u0e27\u0e01\u0e23\u0e2a\u0e34\u0e48\u0e07\u0e41\u0e27\u0e14\u0e25\u0e49\u0e2d\u0e21","parent_id":"800"}, {"id":"2805","name_th":"\u0e27\u0e34\u0e28\u0e27\u0e01\u0e23\u0e2a\u0e34\u0e48\u0e07\u0e41\u0e27\u0e14\u0e25\u0e49\u0e2d\u0e21","parent_id":"2800"}, {"id":"2816","name_th":"\u0e27\u0e34\u0e28\u0e27\u0e01\u0e23\u0e2a\u0e37\u0e48\u0e2d\u0e2a\u0e32\u0e23","parent_id":"2800"}, {"id":"2836","name_th":"\u0e27\u0e34\u0e28\u0e27\u0e01\u0e23\u0e2b\u0e25\u0e38\u0e21\u0e19\u0e49\u0e33\u0e21\u0e31\u0e19\u0e2b\u0e23\u0e37\u0e2d\u0e41\u0e01\u0e4a\u0e2a\u0e18\u0e23\u0e23\u0e21\u0e0a\u0e32\u0e15\u0e34","parent_id":"2800"}, {"id":"2802","name_th":"\u0e27\u0e34\u0e28\u0e27\u0e01\u0e23\u0e2d\u0e2d\u0e01\u0e41\u0e1a\u0e1a","parent_id":"2800"}, {"id":"819","name_th":"\u0e27\u0e34\u0e28\u0e27\u0e01\u0e23\u0e2d\u0e2d\u0e01\u0e41\u0e1a\u0e1a\u0e42\u0e04\u0e23\u0e07\u0e2a\u0e23\u0e49\u0e32\u0e07","parent_id":"800"}, {"id":"2811","name_th":"\u0e27\u0e34\u0e28\u0e27\u0e01\u0e23\u0e2d\u0e32\u0e04\u0e32\u0e23","parent_id":"2800"}, {"id":"2808","name_th":"\u0e27\u0e34\u0e28\u0e27\u0e01\u0e23\u0e2d\u0e38\u0e15\u0e2a\u0e32\u0e2b\u0e01\u0e32\u0e23","parent_id":"2800"}, {"id":"2801","name_th":"\u0e27\u0e34\u0e28\u0e27\u0e01\u0e23\u0e40\u0e04\u0e21\u0e35","parent_id":"2800"}, {"id":"2809","name_th":"\u0e27\u0e34\u0e28\u0e27\u0e01\u0e23\u0e40\u0e04\u0e23\u0e37\u0e48\u0e2d\u0e07\u0e01\u0e25","parent_id":"2800"}, {"id":"2829","name_th":"\u0e27\u0e34\u0e28\u0e27\u0e01\u0e23\u0e40\u0e2b\u0e21\u0e37\u0e2d\u0e07\u0e41\u0e23\u0e48","parent_id":"2800"}, {"id":"2835","name_th":"\u0e27\u0e34\u0e28\u0e27\u0e01\u0e23\u0e41\u0e2b\u0e25\u0e48\u0e07\u0e01\u0e31\u0e01\u0e40\u0e01\u0e47\u0e1a","parent_id":"2800"}, {"id":"2817","name_th":"\u0e27\u0e34\u0e28\u0e27\u0e01\u0e23\u0e41\u0e2b\u0e25\u0e48\u0e07\u0e19\u0e49\u0e33","parent_id":"2800"}, {"id":"2810","name_th":"\u0e27\u0e34\u0e28\u0e27\u0e01\u0e23\u0e42\u0e04\u0e23\u0e07\u0e01\u0e32\u0e23","parent_id":"2800"}, {"id":"2820","name_th":"\u0e27\u0e34\u0e28\u0e27\u0e01\u0e23\u0e42\u0e04\u0e23\u0e07\u0e2a\u0e23\u0e49\u0e32\u0e07","parent_id":"2800"}, {"id":"802","name_th":"\u0e27\u0e34\u0e28\u0e27\u0e01\u0e23\u0e42\u0e22\u0e18\u0e32","parent_id":"800"}, {"id":"2819","name_th":"\u0e27\u0e34\u0e28\u0e27\u0e01\u0e23\u0e42\u0e22\u0e18\u0e32","parent_id":"2800"}, {"id":"2832","name_th":"\u0e27\u0e34\u0e28\u0e27\u0e01\u0e23\u0e42\u0e25\u0e08\u0e34\u0e2a\u0e15\u0e34\u0e01\u0e2a\u0e4c","parent_id":"2800"}, {"id":"2834","name_th":"\u0e27\u0e34\u0e28\u0e27\u0e01\u0e23\u0e42\u0e25\u0e2b\u0e01\u0e32\u0e23","parent_id":"2800"}, {"id":"2803","name_th":"\u0e27\u0e34\u0e28\u0e27\u0e01\u0e23\u0e44\u0e1f\u0e1f\u0e49\u0e32\/ \u0e2d\u0e34\u0e40\u0e25\u0e47\u0e01\u0e17\u0e23\u0e2d\u0e19\u0e34\u0e01\u0e2a\u0e4c","parent_id":"2800"}, {"id":"406","name_th":"\u0e28\u0e31\u0e25\u0e22\u0e41\u0e1e\u0e17\u0e22\u0e4c \u0e1b\u0e23\u0e30\u0e08\u0e33","parent_id":"400"}, {"id":"801","name_th":"\u0e2a\u0e16\u0e32\u0e1b\u0e19\u0e34\u0e01","parent_id":"800"}, {"id":"812","name_th":"\u0e2a\u0e16\u0e32\u0e1b\u0e19\u0e34\u0e01\u0e1d\u0e48\u0e32\u0e22\u0e02\u0e32\u0e22","parent_id":"800"}, {"id":"2003","name_th":"\u0e2a\u0e21\u0e38\u0e2b\u0e4c\u0e1a\u0e31\u0e0d\u0e0a\u0e35","parent_id":"2000"}, {"id":"104","name_th":"\u0e2a\u0e31\u0e15\u0e27\u0e1a\u0e32\u0e25","parent_id":"100"}, {"id":"411","name_th":"\u0e2a\u0e31\u0e15\u0e27\u0e41\u0e1e\u0e17\u0e22\u0e4c","parent_id":"400"}, {"id":"3014","name_th":"\u0e2a\u0e44\u0e15\u0e25\u0e34\u0e2a\u0e17\u0e4c","parent_id":"3000"}, {"id":"3105","name_th":"\u0e2b\u0e19\u0e48\u0e27\u0e22\u0e1e\u0e31\u0e12\u0e19\u0e32\u0e41\u0e25\u0e30\u0e41\u0e1c\u0e19\u0e07\u0e32\u0e19","parent_id":"3100"}, {"id":"501","name_th":"\u0e2b\u0e31\u0e27\u0e2b\u0e19\u0e49\u0e32\u0e04\u0e19\u0e07\u0e32\u0e19\u0e17\u0e31\u0e48\u0e27\u0e44\u0e1b","parent_id":"500"}, {"id":"202","name_th":"\u0e2b\u0e31\u0e27\u0e2b\u0e19\u0e49\u0e32\u0e41\u0e1c\u0e19\u0e01\u0e04\u0e31\u0e14\u0e1e\u0e25\u0e2d\u0e22","parent_id":"200"}, {"id":"325","name_th":"\u0e2b\u0e31\u0e27\u0e2b\u0e19\u0e49\u0e32\u0e42\u0e04\u0e23\u0e07\u0e01\u0e32\u0e23 IT","parent_id":"300"}, {"id":"1103","name_th":"\u0e2d\u0e32\u0e08\u0e32\u0e23\u0e22\u0e4c\u0e21\u0e2b\u0e32\u0e27\u0e34\u0e17\u0e22\u0e32\u0e25\u0e31\u0e22","parent_id":"1100"}, {"id":"1101","name_th":"\u0e2d\u0e32\u0e08\u0e32\u0e23\u0e22\u0e4c\u0e43\u0e2b\u0e0d\u0e48","parent_id":"1100"}, {"id":"704","name_th":"\u0e2d\u0e32\u0e23\u0e4c\u0e17\u0e44\u0e14\u0e40\u0e23\u0e04\u0e40\u0e15\u0e2d\u0e23\u0e4c","parent_id":"700"}, {"id":"3109","name_th":"\u0e2d\u0e32\u0e2a\u0e32\u0e2a\u0e21\u0e31\u0e04\u0e23","parent_id":"3100"}, {"id":"199","name_th":"\u0e2d\u0e37\u0e48\u0e19\u0e46 \u0e43\u0e19\u0e2a\u0e32\u0e22\u0e2d\u0e32\u0e0a\u0e35\u0e1e\u0e19\u0e35\u0e49","parent_id":"100"}, {"id":"299","name_th":"\u0e2d\u0e37\u0e48\u0e19\u0e46 \u0e43\u0e19\u0e2a\u0e32\u0e22\u0e2d\u0e32\u0e0a\u0e35\u0e1e\u0e19\u0e35\u0e49","parent_id":"200"}, {"id":"399","name_th":"\u0e2d\u0e37\u0e48\u0e19\u0e46 \u0e43\u0e19\u0e2a\u0e32\u0e22\u0e2d\u0e32\u0e0a\u0e35\u0e1e\u0e19\u0e35\u0e49","parent_id":"300"}, {"id":"499","name_th":"\u0e2d\u0e37\u0e48\u0e19\u0e46 \u0e43\u0e19\u0e2a\u0e32\u0e22\u0e2d\u0e32\u0e0a\u0e35\u0e1e\u0e19\u0e35\u0e49","parent_id":"400"}, {"id":"599","name_th":"\u0e2d\u0e37\u0e48\u0e19\u0e46 \u0e43\u0e19\u0e2a\u0e32\u0e22\u0e2d\u0e32\u0e0a\u0e35\u0e1e\u0e19\u0e35\u0e49","parent_id":"500"}, {"id":"699","name_th":"\u0e2d\u0e37\u0e48\u0e19\u0e46 \u0e43\u0e19\u0e2a\u0e32\u0e22\u0e2d\u0e32\u0e0a\u0e35\u0e1e\u0e19\u0e35\u0e49","parent_id":"600"}, {"id":"799","name_th":"\u0e2d\u0e37\u0e48\u0e19\u0e46 \u0e43\u0e19\u0e2a\u0e32\u0e22\u0e2d\u0e32\u0e0a\u0e35\u0e1e\u0e19\u0e35\u0e49","parent_id":"700"}, {"id":"899","name_th":"\u0e2d\u0e37\u0e48\u0e19\u0e46 \u0e43\u0e19\u0e2a\u0e32\u0e22\u0e2d\u0e32\u0e0a\u0e35\u0e1e\u0e19\u0e35\u0e49","parent_id":"800"}, {"id":"999","name_th":"\u0e2d\u0e37\u0e48\u0e19\u0e46 \u0e43\u0e19\u0e2a\u0e32\u0e22\u0e2d\u0e32\u0e0a\u0e35\u0e1e\u0e19\u0e35\u0e49","parent_id":"900"}, {"id":"1099","name_th":"\u0e2d\u0e37\u0e48\u0e19\u0e46 \u0e43\u0e19\u0e2a\u0e32\u0e22\u0e2d\u0e32\u0e0a\u0e35\u0e1e\u0e19\u0e35\u0e49","parent_id":"1000"}, {"id":"1199","name_th":"\u0e2d\u0e37\u0e48\u0e19\u0e46 \u0e43\u0e19\u0e2a\u0e32\u0e22\u0e2d\u0e32\u0e0a\u0e35\u0e1e\u0e19\u0e35\u0e49","parent_id":"1100"}, {"id":"1299","name_th":"\u0e2d\u0e37\u0e48\u0e19\u0e46 \u0e43\u0e19\u0e2a\u0e32\u0e22\u0e2d\u0e32\u0e0a\u0e35\u0e1e\u0e19\u0e35\u0e49","parent_id":"1200"}, {"id":"1399","name_th":"\u0e2d\u0e37\u0e48\u0e19\u0e46 \u0e43\u0e19\u0e2a\u0e32\u0e22\u0e2d\u0e32\u0e0a\u0e35\u0e1e\u0e19\u0e35\u0e49","parent_id":"1300"}, {"id":"1499","name_th":"\u0e2d\u0e37\u0e48\u0e19\u0e46 \u0e43\u0e19\u0e2a\u0e32\u0e22\u0e2d\u0e32\u0e0a\u0e35\u0e1e\u0e19\u0e35\u0e49","parent_id":"1400"}, {"id":"1599","name_th":"\u0e2d\u0e37\u0e48\u0e19\u0e46 \u0e43\u0e19\u0e2a\u0e32\u0e22\u0e2d\u0e32\u0e0a\u0e35\u0e1e\u0e19\u0e35\u0e49","parent_id":"1500"}, {"id":"1699","name_th":"\u0e2d\u0e37\u0e48\u0e19\u0e46 \u0e43\u0e19\u0e2a\u0e32\u0e22\u0e2d\u0e32\u0e0a\u0e35\u0e1e\u0e19\u0e35\u0e49","parent_id":"1600"}, {"id":"1799","name_th":"\u0e2d\u0e37\u0e48\u0e19\u0e46 \u0e43\u0e19\u0e2a\u0e32\u0e22\u0e2d\u0e32\u0e0a\u0e35\u0e1e\u0e19\u0e35\u0e49","parent_id":"1700"}, {"id":"1899","name_th":"\u0e2d\u0e37\u0e48\u0e19\u0e46 \u0e43\u0e19\u0e2a\u0e32\u0e22\u0e2d\u0e32\u0e0a\u0e35\u0e1e\u0e19\u0e35\u0e49","parent_id":"1800"}, {"id":"1999","name_th":"\u0e2d\u0e37\u0e48\u0e19\u0e46 \u0e43\u0e19\u0e2a\u0e32\u0e22\u0e2d\u0e32\u0e0a\u0e35\u0e1e\u0e19\u0e35\u0e49","parent_id":"1900"}, {"id":"2099","name_th":"\u0e2d\u0e37\u0e48\u0e19\u0e46 \u0e43\u0e19\u0e2a\u0e32\u0e22\u0e2d\u0e32\u0e0a\u0e35\u0e1e\u0e19\u0e35\u0e49","parent_id":"2000"}, {"id":"2199","name_th":"\u0e2d\u0e37\u0e48\u0e19\u0e46 \u0e43\u0e19\u0e2a\u0e32\u0e22\u0e2d\u0e32\u0e0a\u0e35\u0e1e\u0e19\u0e35\u0e49","parent_id":"2100"}, {"id":"2299","name_th":"\u0e2d\u0e37\u0e48\u0e19\u0e46 \u0e43\u0e19\u0e2a\u0e32\u0e22\u0e2d\u0e32\u0e0a\u0e35\u0e1e\u0e19\u0e35\u0e49","parent_id":"2200"}, {"id":"2399","name_th":"\u0e2d\u0e37\u0e48\u0e19\u0e46 \u0e43\u0e19\u0e2a\u0e32\u0e22\u0e2d\u0e32\u0e0a\u0e35\u0e1e\u0e19\u0e35\u0e49","parent_id":"2300"}, {"id":"2499","name_th":"\u0e2d\u0e37\u0e48\u0e19\u0e46 \u0e43\u0e19\u0e2a\u0e32\u0e22\u0e2d\u0e32\u0e0a\u0e35\u0e1e\u0e19\u0e35\u0e49","parent_id":"2400"}, {"id":"2599","name_th":"\u0e2d\u0e37\u0e48\u0e19\u0e46 \u0e43\u0e19\u0e2a\u0e32\u0e22\u0e2d\u0e32\u0e0a\u0e35\u0e1e\u0e19\u0e35\u0e49","parent_id":"2500"}, {"id":"2699","name_th":"\u0e2d\u0e37\u0e48\u0e19\u0e46 \u0e43\u0e19\u0e2a\u0e32\u0e22\u0e2d\u0e32\u0e0a\u0e35\u0e1e\u0e19\u0e35\u0e49","parent_id":"2600"}, {"id":"2799","name_th":"\u0e2d\u0e37\u0e48\u0e19\u0e46 \u0e43\u0e19\u0e2a\u0e32\u0e22\u0e2d\u0e32\u0e0a\u0e35\u0e1e\u0e19\u0e35\u0e49","parent_id":"2700"}, {"id":"2899","name_th":"\u0e2d\u0e37\u0e48\u0e19\u0e46 \u0e43\u0e19\u0e2a\u0e32\u0e22\u0e2d\u0e32\u0e0a\u0e35\u0e1e\u0e19\u0e35\u0e49","parent_id":"2800"}, {"id":"2999","name_th":"\u0e2d\u0e37\u0e48\u0e19\u0e46 \u0e43\u0e19\u0e2a\u0e32\u0e22\u0e2d\u0e32\u0e0a\u0e35\u0e1e\u0e19\u0e35\u0e49","parent_id":"2900"}, {"id":"3099","name_th":"\u0e2d\u0e37\u0e48\u0e19\u0e46 \u0e43\u0e19\u0e2a\u0e32\u0e22\u0e2d\u0e32\u0e0a\u0e35\u0e1e\u0e19\u0e35\u0e49","parent_id":"3000"}, {"id":"3199","name_th":"\u0e2d\u0e37\u0e48\u0e19\u0e46 \u0e43\u0e19\u0e2a\u0e32\u0e22\u0e2d\u0e32\u0e0a\u0e35\u0e1e\u0e19\u0e35\u0e49","parent_id":"3100"}, {"id":"3299","name_th":"\u0e2d\u0e37\u0e48\u0e19\u0e46 \u0e43\u0e19\u0e2a\u0e32\u0e22\u0e2d\u0e32\u0e0a\u0e35\u0e1e\u0e19\u0e35\u0e49","parent_id":"3200"}, {"id":"305","name_th":"\u0e40\u0e01\u0e21\u0e2a\u0e4c\u0e21\u0e32\u0e2a\u0e40\u0e15\u0e2d\u0e23\u0e4c","parent_id":"300"}, {"id":"105","name_th":"\u0e40\u0e08\u0e49\u0e32\u0e2b\u0e19\u0e49\u0e32\u0e17\u0e35\u0e48\u0e01\u0e32\u0e23\u0e40\u0e01\u0e29\u0e15\u0e23","parent_id":"100"}, {"id":"603","name_th":"\u0e40\u0e08\u0e49\u0e32\u0e2b\u0e19\u0e49\u0e32\u0e17\u0e35\u0e48\u0e15\u0e34\u0e14\u0e15\u0e32\u0e21\u0e04\u0e14\u0e35\u0e23\u0e16\u0e2b\u0e32\u0e22","parent_id":"600"}, {"id":"908","name_th":"\u0e40\u0e08\u0e49\u0e32\u0e2b\u0e19\u0e49\u0e32\u0e17\u0e35\u0e48\u0e15\u0e34\u0e14\u0e15\u0e32\u0e21\u0e04\u0e14\u0e35\u0e23\u0e16\u0e2b\u0e32\u0e22","parent_id":"900"}, {"id":"2106","name_th":"\u0e40\u0e08\u0e49\u0e32\u0e2b\u0e19\u0e49\u0e32\u0e17\u0e35\u0e48\u0e1b\u0e23\u0e30\u0e08\u0e33\u0e2b\u0e49\u0e2d\u0e07\u0e09\u0e32\u0e22\u0e2b\u0e19\u0e31\u0e07","parent_id":"2100"}, {"id":"904","name_th":"\u0e40\u0e08\u0e49\u0e32\u0e2b\u0e19\u0e49\u0e32\u0e17\u0e35\u0e48\u0e1b\u0e23\u0e30\u0e08\u0e33\u0e40\u0e04\u0e32\u0e40\u0e15\u0e2d\u0e23\u0e4c\u0e18\u0e19\u0e32\u0e04\u0e32\u0e23","parent_id":"900"}, {"id":"107","name_th":"\u0e40\u0e08\u0e49\u0e32\u0e2b\u0e19\u0e49\u0e32\u0e17\u0e35\u0e48\u0e1b\u0e23\u0e30\u0e21\u0e07","parent_id":"100"}, {"id":"2606","name_th":"\u0e40\u0e08\u0e49\u0e32\u0e2b\u0e19\u0e49\u0e32\u0e17\u0e35\u0e48\u0e23\u0e31\u0e1a\u0e23\u0e16","parent_id":"2600"}, {"id":"1604","name_th":"\u0e40\u0e08\u0e49\u0e32\u0e2b\u0e19\u0e49\u0e32\u0e17\u0e35\u0e48\u0e27\u0e34\u0e40\u0e04\u0e23\u0e32\u0e30\u0e2b\u0e4c\u0e01\u0e32\u0e23\u0e1e\u0e31\u0e12\u0e19\u0e32\u0e2d\u0e07\u0e04\u0e4c\u0e01\u0e23","parent_id":"1600"}, {"id":"418","name_th":"\u0e40\u0e08\u0e49\u0e32\u0e2b\u0e19\u0e49\u0e32\u0e17\u0e35\u0e48\u0e2a\u0e32\u0e18\u0e32\u0e23\u0e13\u0e2a\u0e38\u0e02","parent_id":"400"}, {"id":"419","name_th":"\u0e40\u0e17\u0e04\u0e19\u0e34\u0e04\u0e01\u0e32\u0e23\u0e41\u0e1e\u0e17\u0e22\u0e4c","parent_id":"400"}, {"id":"821","name_th":"\u0e40\u0e1f\u0e2d\u0e23\u0e4c\u0e19\u0e34\u0e40\u0e08\u0e2d\u0e23\u0e4c","parent_id":"800"}, {"id":"407","name_th":"\u0e40\u0e20\u0e2a\u0e31\u0e0a\u0e01\u0e23","parent_id":"400"}, {"id":"707","name_th":"\u0e40\u0e21\u0e2d\u0e23\u0e4c\u0e41\u0e0a\u0e19\u0e44\u0e14\u0e40\u0e0b\u0e2d\u0e23\u0e4c\u0e40\u0e2a\u0e37\u0e49\u0e2d\u0e1c\u0e49\u0e32","parent_id":"700"}, {"id":"1703","name_th":"\u0e40\u0e25\u0e02\u0e32\u0e19\u0e38\u0e01\u0e32\u0e23","parent_id":"1700"}, {"id":"1702","name_th":"\u0e40\u0e2a\u0e21\u0e35\u0e22\u0e19\/\u0e1d\u0e48\u0e32\u0e22\u0e1e\u0e34\u0e21\u0e1e\u0e4c\u0e40\u0e2d\u0e01\u0e2a\u0e32\u0e23\/\u0e40\u0e15\u0e23\u0e35\u0e22\u0e21\u0e40\u0e2d\u0e01\u0e2a\u0e32\u0e23","parent_id":"1700"}, {"id":"2002","name_th":"\u0e41\u0e04\u0e0a\u0e40\u0e0a\u0e35\u0e22\u0e23\u0e4c","parent_id":"2000"}, {"id":"711","name_th":"\u0e41\u0e1c\u0e19\u0e01\u0e04\u0e27\u0e1a\u0e04\u0e38\u0e21\u0e27\u0e31\u0e15\u0e16\u0e38\u0e14\u0e34\u0e1a","parent_id":"700"}, {"id":"1517","name_th":"\u0e41\u0e1c\u0e19\u0e01\u0e17\u0e31\u0e27\u0e23\u0e4c\u0e43\u0e19\u0e1b\u0e23\u0e30\u0e40\u0e17\u0e28\u0e41\u0e25\u0e30\u0e08\u0e2d\u0e07\u0e15\u0e31\u0e4b\u0e27","parent_id":"1500"}, {"id":"1515","name_th":"\u0e41\u0e1c\u0e19\u0e01\u0e1b\u0e0f\u0e34\u0e1a\u0e31\u0e15\u0e34\u0e01\u0e32\u0e23","parent_id":"1500"}, {"id":"311","name_th":"\u0e41\u0e1c\u0e19\u0e01\u0e23\u0e30\u0e1a\u0e1a\u0e02\u0e49\u0e2d\u0e21\u0e39\u0e25\u0e40\u0e1e\u0e37\u0e48\u0e2d\u0e01\u0e32\u0e23\u0e08\u0e31\u0e14\u0e01\u0e32\u0e23","parent_id":"300"}, {"id":"402","name_th":"\u0e41\u0e1e\u0e17\u0e22\u0e4c","parent_id":"400"}, {"id":"314","name_th":"\u0e42\u0e1b\u0e23\u0e41\u0e01\u0e23\u0e21\u0e40\u0e21\u0e2d\u0e23\u0e4c","parent_id":"300"}, {"id":"2807","name_th":"\u0e42\u0e1f\u0e23\u0e4c\u0e41\u0e21\u0e19","parent_id":"2800"}, {"id":"1508","name_th":"\u0e42\u0e20\u0e0a\u0e19\u0e32\u0e01\u0e23\/\u0e1e\u0e48\u0e2d\u0e04\u0e23\u0e31\u0e27\/\u0e41\u0e21\u0e48\u0e04\u0e23\u0e31\u0e27","parent_id":"1500"}, {"id":"1901","name_th":"\u0e42\u0e2d\u0e40\u0e1b\u0e2d\u0e23\u0e4c\u0e40\u0e23\u0e40\u0e15\u0e2d\u0e23\u0e4c\/ \u0e28\u0e39\u0e19\u0e22\u0e4c\u0e04\u0e2d\u0e25\u0e40\u0e0b\u0e19\u0e40\u0e15\u0e2d\u0e23\u0e4c","parent_id":"1900"}, {"id":"1708","name_th":"\u0e42\u0e2d\u0e40\u0e1b\u0e2d\u0e40\u0e23\u0e40\u0e15\u0e2d\u0e23\u0e4c\u0e42\u0e17\u0e23\u0e28\u0e31\u0e1e\u0e17\u0e4c\u0e1b\u0e23\u0e30\u0e08\u0e33\u0e2a\u0e33\u0e19\u0e31\u0e01\u0e07\u0e32\u0e19","parent_id":"1700"}]}