{"error":0,"result":[{"id":"2410","name_en":"Account Executive \/Sales Executive","parent_id":"2400"}, {"id":"2001","name_en":"Accounting","parent_id":"2000"}, {"id":"2102","name_en":"Actor\/Actress","parent_id":"2100"}, {"id":"2209","name_en":"Actuarial","parent_id":"2200"}, {"id":"1701","name_en":"Administration","parent_id":"1700"}, {"id":"1008","name_en":"Advertising","parent_id":"1000"}, {"id":"3001","name_en":"Advertising","parent_id":"3000"}, {"id":"2403","name_en":"After Sales Service","parent_id":"2400"}, {"id":"105","name_en":"Agriculture Staff","parent_id":"100"}, {"id":"3205","name_en":"Air Conditioning Technician","parent_id":"3200"}, {"id":"2901","name_en":"Aircraft Mechanic","parent_id":"2900"}, {"id":"2911","name_en":"Airlines Training","parent_id":"2900"}, {"id":"104","name_en":"Animal Care\/ Animal Husbandman","parent_id":"100"}, {"id":"416","name_en":"Antibody specialist","parent_id":"400"}, {"id":"1602","name_en":"Application Consultant","parent_id":"1600"}, {"id":"323","name_en":"Application Support","parent_id":"300"}, {"id":"301","name_en":"Application\/Program Tester","parent_id":"300"}, {"id":"801","name_en":"Architect","parent_id":"800"}, {"id":"1308","name_en":"Area \/ Branch Manager","parent_id":"1300"}, {"id":"106","name_en":"Argicultural Futures","parent_id":"100"}, {"id":"704","name_en":"Art Director","parent_id":"700"}, {"id":"712","name_en":"Artist\/ Technician","parent_id":"700"}, {"id":"911","name_en":"Assets & Liabilities Management","parent_id":"900"}, {"id":"2312","name_en":"Assistant Manager","parent_id":"2300"}, {"id":"2317","name_en":"Assistant Managing Director","parent_id":"2300"}, {"id":"2316","name_en":"Assitant Vice President","parent_id":"2300"}, {"id":"912","name_en":"Authorization & Fraud","parent_id":"900"}, {"id":"3223","name_en":"Auto Cleaning","parent_id":"3200"}, {"id":"2825","name_en":"Automotive Engineer","parent_id":"2800"}, {"id":"2605","name_en":"Baby-Sitter","parent_id":"2600"}, {"id":"2208","name_en":"Bancassurance","parent_id":"2200"}, {"id":"1503","name_en":"Banquet & Seminar","parent_id":"1500"}, {"id":"1520","name_en":"Barista","parent_id":"1500"}, {"id":"1506","name_en":"Bartender","parent_id":"1500"}, {"id":"2103","name_en":"Beauty\/Salon\/Stylist","parent_id":"2100"}, {"id":"1210","name_en":"Bio-Medical Technology Consultant","parent_id":"1200"}, {"id":"1603","name_en":"Bio-Medical Technology Consultant","parent_id":"1600"}, {"id":"1201","name_en":"Biologist","parent_id":"1200"}, {"id":"502","name_en":"BOI\/ISO Co-ordinator","parent_id":"500"}, {"id":"1001","name_en":"Brand Management","parent_id":"1000"}, {"id":"913","name_en":"Budgeting","parent_id":"900"}, {"id":"3202","name_en":"Builder \/ Contractor","parent_id":"3200"}, {"id":"823","name_en":"Building Manager","parent_id":"800"}, {"id":"1607","name_en":"Business Development","parent_id":"1600"}, {"id":"2606","name_en":"Car Boy","parent_id":"2600"}, {"id":"907","name_en":"Car Loan","parent_id":"900"}, {"id":"1507","name_en":"Cashier","parent_id":"1500"}, {"id":"2002","name_en":"Cashier","parent_id":"2000"}, {"id":"3002","name_en":"Casting","parent_id":"3000"}, {"id":"3229","name_en":"CCTV Technician","parent_id":"3200"}, {"id":"1508","name_en":"Chef","parent_id":"1500"}, {"id":"2801","name_en":"Chemical Engineer","parent_id":"2800"}, {"id":"1202","name_en":"Chemist","parent_id":"1200"}, {"id":"2003","name_en":"Chief Accountant","parent_id":"2000"}, {"id":"2303","name_en":"Chief Executive Officer (CEO)","parent_id":"2300"}, {"id":"2304","name_en":"Chief Financial Officer (CFO)","parent_id":"2300"}, {"id":"2305","name_en":"Chief Operating Officer (COO)","parent_id":"2300"}, {"id":"2306","name_en":"Chief Technology Officer (CTO)\/ CIO","parent_id":"2300"}, {"id":"802","name_en":"Civil Engineer","parent_id":"800"}, {"id":"2819","name_en":"Civil Engineer","parent_id":"2800"}, {"id":"604","name_en":"Claims","parent_id":"600"}, {"id":"1509","name_en":"Communication","parent_id":"1500"}, {"id":"2504","name_en":"Compensation & Benefits","parent_id":"2500"}, {"id":"605","name_en":"Compliance\/Audit","parent_id":"600"}, {"id":"915","name_en":"Compliance\/Audit","parent_id":"900"}, {"id":"2501","name_en":"Compliance\/Audit","parent_id":"2500"}, {"id":"2826","name_en":"Computer Engineer","parent_id":"2800"}, {"id":"309","name_en":"Computer Graphic","parent_id":"300"}, {"id":"705","name_en":"Computer Graphic Designer","parent_id":"700"}, {"id":"1618","name_en":"Computer System and Security Consultant","parent_id":"1600"}, {"id":"3224","name_en":"Computer systems integration office","parent_id":"3200"}, {"id":"3208","name_en":"Computer Technician","parent_id":"3200"}, {"id":"307","name_en":"Computer\/IT Department","parent_id":"300"}, {"id":"1606","name_en":"Construction Consultant","parent_id":"1600"}, {"id":"809","name_en":"Construction Labour","parent_id":"800"}, {"id":"1704","name_en":"Coordinator","parent_id":"1700"}, {"id":"3003","name_en":"Copy Writing","parent_id":"3000"}, {"id":"906","name_en":"Corporate Affairs","parent_id":"900"}, {"id":"602","name_en":"Corporate Law","parent_id":"600"}, {"id":"803","name_en":"Cost Estimator","parent_id":"800"}, {"id":"2004","name_en":"Costing","parent_id":"2000"}, {"id":"3209","name_en":"Craftsman Furniture \/ Carpenter","parent_id":"3200"}, {"id":"3004","name_en":"Creative","parent_id":"3000"}, {"id":"914","name_en":"Credit Card Operation","parent_id":"900"}, {"id":"1608","name_en":"Credit Consultant","parent_id":"1600"}, {"id":"909","name_en":"Credit Management","parent_id":"900"}, {"id":"1902","name_en":"Customer Service \/ Customer Relation","parent_id":"1900"}, {"id":"308","name_en":"Database Administrator","parent_id":"300"}, {"id":"614","name_en":"Debt Collection","parent_id":"600"}, {"id":"916","name_en":"Debt Collection","parent_id":"900"}, {"id":"3222","name_en":"Demolition work","parent_id":"3200"}, {"id":"401","name_en":"Dentist","parent_id":"400"}, {"id":"910","name_en":"Deposit Division","parent_id":"900"}, {"id":"2802","name_en":"Design Engineer","parent_id":"2800"}, {"id":"3213","name_en":"Designed the garden \/ Landscaping \/ Lawn Mower","parent_id":"3200"}, {"id":"1609","name_en":"Designer Consultant","parent_id":"1600"}, {"id":"706","name_en":"Detail Staff","parent_id":"700"}, {"id":"2404","name_en":"Direct Sales","parent_id":"2400"}, {"id":"2307","name_en":"Director","parent_id":"2300"}, {"id":"606","name_en":"Disciplinary","parent_id":"600"}, {"id":"1710","name_en":"Document Control","parent_id":"1700"}, {"id":"513","name_en":"Draftsman","parent_id":"500"}, {"id":"702","name_en":"Draftsman","parent_id":"700"}, {"id":"804","name_en":"Draftsman \/ CAD Operator","parent_id":"800"}, {"id":"2833","name_en":"Drilling Engineer","parent_id":"2800"}, {"id":"2608","name_en":"Driver for Executive","parent_id":"2600"}, {"id":"905","name_en":"Economist","parent_id":"900"}, {"id":"3005","name_en":"Editorial","parent_id":"3000"}, {"id":"1610","name_en":"Educational Consultant","parent_id":"1600"}, {"id":"3221","name_en":"Electric antenna \/ satellite","parent_id":"3200"}, {"id":"3218","name_en":"Electric awning \/ Canopy \/ Canvas","parent_id":"3200"}, {"id":"3220","name_en":"Electric curtains \/ Wallpaper","parent_id":"3200"}, {"id":"3217","name_en":"Electric Floor \/ Tile","parent_id":"3200"}, {"id":"3219","name_en":"Electric gate \/ Fence \/ Iron","parent_id":"3200"}, {"id":"3211","name_en":"Electric Insect Exterminator Mice","parent_id":"3200"}, {"id":"2803","name_en":"Electric\/Electronic Engineer","parent_id":"2800"}, {"id":"3203","name_en":"Electrician","parent_id":"3200"}, {"id":"3207","name_en":"Electronics Engineer","parent_id":"3200"}, {"id":"2507","name_en":"Employee Relation\/ Internal Communication","parent_id":"2500"}, {"id":"1203","name_en":"Energy Engineer","parent_id":"1200"}, {"id":"2804","name_en":"Energy Engineer","parent_id":"2800"}, {"id":"1611","name_en":"Engagement Consultant","parent_id":"1600"}, {"id":"1605","name_en":"Engineering Consultant","parent_id":"1600"}, {"id":"2315","name_en":"Entrepreneur\/Owner","parent_id":"2300"}, {"id":"2805","name_en":"Environmental Engineer","parent_id":"2800"}, {"id":"601","name_en":"Environmental law","parent_id":"600"}, {"id":"1204","name_en":"Environmental Scientist","parent_id":"1200"}, {"id":"1510","name_en":"Event","parent_id":"1500"}, {"id":"1009","name_en":"Event Marketing","parent_id":"1000"}, {"id":"2005","name_en":"External Audit","parent_id":"2000"}, {"id":"806","name_en":"Field Engineer","parent_id":"800"}, {"id":"3102","name_en":"Field Operation","parent_id":"3100"}, {"id":"2806","name_en":"Field Service","parent_id":"2800"}, {"id":"3006","name_en":"Film Inspection","parent_id":"3000"}, {"id":"918","name_en":"Financial Analysis","parent_id":"900"}, {"id":"919","name_en":"Financial Audit","parent_id":"900"}, {"id":"1612","name_en":"Financial Consultant","parent_id":"1600"}, {"id":"901","name_en":"Financial Controller","parent_id":"900"}, {"id":"917","name_en":"Financial Department","parent_id":"900"}, {"id":"2014","name_en":"Financial Department","parent_id":"2000"}, {"id":"107","name_en":"Fishery","parent_id":"100"}, {"id":"414","name_en":"Fitness Consultant","parent_id":"400"}, {"id":"1502","name_en":"Food & Beverage\/ Restaurant","parent_id":"1500"}, {"id":"1205","name_en":"Food Science","parent_id":"1200"}, {"id":"807","name_en":"Foreman","parent_id":"800"}, {"id":"2807","name_en":"Foreman","parent_id":"2800"}, {"id":"1511","name_en":"Front Office","parent_id":"1500"}, {"id":"406","name_en":"Full-time Surgeon","parent_id":"400"}, {"id":"2006","name_en":"Fund Accounting","parent_id":"2000"}, {"id":"924","name_en":"Fund Management","parent_id":"900"}, {"id":"821","name_en":"Furniture","parent_id":"800"}, {"id":"305","name_en":"Game Master","parent_id":"300"}, {"id":"707","name_en":"Garment Merchandiser","parent_id":"700"}, {"id":"701","name_en":"Garment\/ Fashion Designer","parent_id":"700"}, {"id":"206","name_en":"Gemologist","parent_id":"200"}, {"id":"1702","name_en":"General Clerk\/Typist","parent_id":"1700"}, {"id":"2607","name_en":"General Driver\/Truck","parent_id":"2600"}, {"id":"501","name_en":"General Foreman","parent_id":"500"}, {"id":"2301","name_en":"General Manager","parent_id":"2300"}, {"id":"1306","name_en":"General Trade","parent_id":"1300"}, {"id":"101","name_en":"Geophisicist","parent_id":"100"}, {"id":"2838","name_en":"Geotechnical Engineer","parent_id":"2800"}, {"id":"201","name_en":"Gilding Supervisor","parent_id":"200"}, {"id":"3214","name_en":"Glazier \/ Aluminum \/ Ceiling","parent_id":"3200"}, {"id":"3101","name_en":"Governor","parent_id":"3100"}, {"id":"708","name_en":"Graphic Designer","parent_id":"700"}, {"id":"2910","name_en":"Ground Service","parent_id":"2900"}, {"id":"2202","name_en":"Guest Speaker\/ Expert","parent_id":"2200"}, {"id":"1504","name_en":"Guide","parent_id":"1500"}, {"id":"310","name_en":"Hardware Engineer","parent_id":"300"}, {"id":"805","name_en":"Health & Environment Engineer","parent_id":"800"}, {"id":"418","name_en":"Health officials","parent_id":"400"}, {"id":"1501","name_en":"Hostess \/ Waiter \/ Waitress","parent_id":"1500"}, {"id":"1505","name_en":"Hotel Staff","parent_id":"1500"}, {"id":"1519","name_en":"Housekeeping","parent_id":"1500"}, {"id":"2609","name_en":"Housekeeping","parent_id":"2600"}, {"id":"1613","name_en":"HR Consultant","parent_id":"1600"}, {"id":"2503","name_en":"Human Resources (General)","parent_id":"2500"}, {"id":"2502","name_en":"Human Resources Consult","parent_id":"2500"}, {"id":"2509","name_en":"Human Resources Development","parent_id":"2500"}, {"id":"1803","name_en":"Import-Export Document\/BOI","parent_id":"1800"}, {"id":"1805","name_en":"Import-Export Marketing","parent_id":"1800"}, {"id":"1807","name_en":"Import-Export Purchasing","parent_id":"1800"}, {"id":"1804","name_en":"Import-Export Sales","parent_id":"1800"}, {"id":"2808","name_en":"Industrial Engineer","parent_id":"2800"}, {"id":"820","name_en":"Installation\/ Measurement","parent_id":"800"}, {"id":"2831","name_en":"Instrument Engineer","parent_id":"2800"}, {"id":"2201","name_en":"Insurance Agent","parent_id":"2200"}, {"id":"2203","name_en":"Insurance\/Claim Inspection","parent_id":"2200"}, {"id":"709","name_en":"Interior Designer","parent_id":"700"}, {"id":"808","name_en":"Interior Designer","parent_id":"800"}, {"id":"2008","name_en":"Internal Audit","parent_id":"2000"}, {"id":"2314","name_en":"International Management","parent_id":"2300"}, {"id":"1010","name_en":"International Marketing","parent_id":"1000"}, {"id":"3103","name_en":"International Relations","parent_id":"3100"}, {"id":"2405","name_en":"International Sales","parent_id":"2400"}, {"id":"1706","name_en":"International\/ Foreign Affair","parent_id":"1700"}, {"id":"1619","name_en":"Internet Marketing Consultant","parent_id":"1600"}, {"id":"2701","name_en":"Interpreter","parent_id":"2700"}, {"id":"902","name_en":"Investment Banking","parent_id":"900"}, {"id":"920","name_en":"Investment Planning","parent_id":"900"}, {"id":"921","name_en":"Investor Relations","parent_id":"900"}, {"id":"2009","name_en":"Investor Relations","parent_id":"2000"}, {"id":"1401","name_en":"Invoice Processing","parent_id":"1400"}, {"id":"325","name_en":"IT Project Leader","parent_id":"300"}, {"id":"315","name_en":"IT Project Manager","parent_id":"300"}, {"id":"304","name_en":"Java Developer","parent_id":"300"}, {"id":"203","name_en":"Jewelry Co-ordinator","parent_id":"200"}, {"id":"204","name_en":"Jewelry Designer","parent_id":"200"}, {"id":"205","name_en":"Jewelry Maker","parent_id":"200"}, {"id":"2406","name_en":"Key Account","parent_id":"2400"}, {"id":"3302","name_en":"Key Data Staff","parent_id":"3300"}, {"id":"1102","name_en":"Kindergarten Teacher","parent_id":"1100"}, {"id":"1512","name_en":"Kitchen Maid","parent_id":"1500"}, {"id":"1206","name_en":"Laboratory","parent_id":"1200"}, {"id":"815","name_en":"Landscape Architect","parent_id":"800"}, {"id":"102","name_en":"Landscaping","parent_id":"100"}, {"id":"607","name_en":"Lawyer","parent_id":"600"}, {"id":"1103","name_en":"Lecturer\/Professor","parent_id":"1100"}, {"id":"1614","name_en":"Legal Consultant","parent_id":"1600"}, {"id":"608","name_en":"Legal Contract","parent_id":"600"}, {"id":"609","name_en":"Legal Execution& Property inspector","parent_id":"600"}, {"id":"610","name_en":"Legal Officer","parent_id":"600"}, {"id":"612","name_en":"Legal Research","parent_id":"600"}, {"id":"1104","name_en":"Librarian","parent_id":"1100"}, {"id":"1403","name_en":"Local Purchasing\/Procurement\/Sourcing","parent_id":"1400"}, {"id":"3228","name_en":"Locksmith","parent_id":"3200"}, {"id":"2832","name_en":"Logistic Engineer","parent_id":"2800"}, {"id":"1806","name_en":"Logistics\/Supply Chain\/Shipping","parent_id":"1800"}, {"id":"3226","name_en":"Made Signs and Advertising","parent_id":"3200"}, {"id":"2822","name_en":"Maintenance Engineer","parent_id":"2800"}, {"id":"2302","name_en":"Management","parent_id":"2300"}, {"id":"2308","name_en":"Manager","parent_id":"2300"}, {"id":"2309","name_en":"Managing Director (MD)","parent_id":"2300"}, {"id":"1015","name_en":"Market Research","parent_id":"1000"}, {"id":"1615","name_en":"Marketing Consultant","parent_id":"1600"}, {"id":"1011","name_en":"Marketing Coordination","parent_id":"1000"}, {"id":"1012","name_en":"Marketing Department","parent_id":"1000"}, {"id":"3206","name_en":"Mechanic","parent_id":"3200"}, {"id":"503","name_en":"Mechanic\/ Technician","parent_id":"500"}, {"id":"3210","name_en":"Mechanical Design \/ Interior","parent_id":"3200"}, {"id":"2809","name_en":"Mechanical Engineer","parent_id":"2800"}, {"id":"3007","name_en":"Media Buying\/ Planning","parent_id":"3000"}, {"id":"1616","name_en":"Medical Consultant","parent_id":"1600"}, {"id":"415","name_en":"Medical Record Coder","parent_id":"400"}, {"id":"403","name_en":"Medical Representative","parent_id":"400"}, {"id":"419","name_en":"Medical Technique","parent_id":"400"}, {"id":"3104","name_en":"Member Registration","parent_id":"3100"}, {"id":"1513","name_en":"Membership Sales","parent_id":"1500"}, {"id":"404","name_en":"Mental Health","parent_id":"400"}, {"id":"1004","name_en":"Merchandiser","parent_id":"1000"}, {"id":"2601","name_en":"Messenger","parent_id":"2600"}, {"id":"2834","name_en":"Metallurgy Engineer","parent_id":"2800"}, {"id":"417","name_en":"Microbiologist","parent_id":"400"}, {"id":"2829","name_en":"Mining Engineer","parent_id":"2800"}, {"id":"311","name_en":"MIS","parent_id":"300"}, {"id":"303","name_en":"Mobile Developer","parent_id":"300"}, {"id":"1301","name_en":"Modern Trade","parent_id":"1300"}, {"id":"2837","name_en":"Mud Engineer","parent_id":"2800"}, {"id":"1514","name_en":"Musician","parent_id":"1500"}, {"id":"2104","name_en":"Musician","parent_id":"2100"}, {"id":"312","name_en":"Network Administrator","parent_id":"300"}, {"id":"313","name_en":"Network Engineer","parent_id":"300"}, {"id":"5099","name_en":"Not Specific","parent_id":"5000"}, {"id":"405","name_en":"Nurse","parent_id":"400"}, {"id":"412","name_en":"Nurse Educator","parent_id":"400"}, {"id":"103","name_en":"Nutritionist","parent_id":"100"}, {"id":"1604","name_en":"OD Analyst","parent_id":"1600"}, {"id":"1709","name_en":"Office Management","parent_id":"1700"}, {"id":"1002","name_en":"Online Marketing","parent_id":"1000"}, {"id":"1515","name_en":"Operation","parent_id":"1500"}, {"id":"2204","name_en":"Operation","parent_id":"2200"}, {"id":"922","name_en":"Operation Support","parent_id":"900"}, {"id":"1708","name_en":"Operator","parent_id":"1700"}, {"id":"1901","name_en":"Operator\/Call Center","parent_id":"1900"}, {"id":"3008","name_en":"Organizer","parent_id":"3000"}, {"id":"3299","name_en":"Other Technician Types","parent_id":"3200"}, {"id":"199","name_en":"Others in this job field","parent_id":"100"}, {"id":"299","name_en":"Others in this job field","parent_id":"200"}, {"id":"399","name_en":"Others in this job field","parent_id":"300"}, {"id":"499","name_en":"Others in this job field","parent_id":"400"}, {"id":"599","name_en":"Others in this job field","parent_id":"500"}, {"id":"699","name_en":"Others in this job field","parent_id":"600"}, {"id":"799","name_en":"Others in this job field","parent_id":"700"}, {"id":"899","name_en":"Others in this job field","parent_id":"800"}, {"id":"999","name_en":"Others in this job field","parent_id":"900"}, {"id":"1099","name_en":"Others in this job field","parent_id":"1000"}, {"id":"1199","name_en":"Others in this job field","parent_id":"1100"}, {"id":"1299","name_en":"Others in this job field","parent_id":"1200"}, {"id":"1399","name_en":"Others in this job field","parent_id":"1300"}, {"id":"1499","name_en":"Others in this job field","parent_id":"1400"}, {"id":"1599","name_en":"Others in this job field","parent_id":"1500"}, {"id":"1699","name_en":"Others in this job field","parent_id":"1600"}, {"id":"1799","name_en":"Others in this job field","parent_id":"1700"}, {"id":"1899","name_en":"Others in this job field","parent_id":"1800"}, {"id":"1999","name_en":"Others in this job field","parent_id":"1900"}, {"id":"2099","name_en":"Others in this job field","parent_id":"2000"}, {"id":"2199","name_en":"Others in this job field","parent_id":"2100"}, {"id":"2299","name_en":"Others in this job field","parent_id":"2200"}, {"id":"2399","name_en":"Others in this job field","parent_id":"2300"}, {"id":"2499","name_en":"Others in this job field","parent_id":"2400"}, {"id":"2599","name_en":"Others in this job field","parent_id":"2500"}, {"id":"2699","name_en":"Others in this job field","parent_id":"2600"}, {"id":"2799","name_en":"Others in this job field","parent_id":"2700"}, {"id":"2899","name_en":"Others in this job field","parent_id":"2800"}, {"id":"2999","name_en":"Others in this job field","parent_id":"2900"}, {"id":"3099","name_en":"Others in this job field","parent_id":"3000"}, {"id":"3199","name_en":"Others in this job field","parent_id":"3100"}, {"id":"1801","name_en":"Overseas Coordinator","parent_id":"1800"}, {"id":"1402","name_en":"Overseas Purchasing\/Procurement\/Sourcing","parent_id":"1400"}, {"id":"3009","name_en":"Page Layout","parent_id":"3000"}, {"id":"3212","name_en":"Painter","parent_id":"3200"}, {"id":"2828","name_en":"Panel Engineer","parent_id":"2800"}, {"id":"3301","name_en":"Part-Time Staff","parent_id":"3300"}, {"id":"2905","name_en":"Passenger Reservation","parent_id":"2900"}, {"id":"2402","name_en":"PC Sales","parent_id":"2400"}, {"id":"2827","name_en":"Petroleum Engineer","parent_id":"2800"}, {"id":"410","name_en":"Pharmaceutical\/ Health Care Product","parent_id":"400"}, {"id":"407","name_en":"Pharmacist","parent_id":"400"}, {"id":"710","name_en":"Photographer","parent_id":"700"}, {"id":"3010","name_en":"Photographer","parent_id":"3000"}, {"id":"3225","name_en":"Photographer","parent_id":"3200"}, {"id":"3020","name_en":"Photographers Video","parent_id":"3000"}, {"id":"408","name_en":"Physical Therapist","parent_id":"400"}, {"id":"402","name_en":"Physician\/Doctor","parent_id":"400"}, {"id":"2902","name_en":"Pilot","parent_id":"2900"}, {"id":"3105","name_en":"Planning&Development","parent_id":"3100"}, {"id":"306","name_en":"PLC Programming","parent_id":"300"}, {"id":"3204","name_en":"Plumbing \/ Sanitary","parent_id":"3200"}, {"id":"3227","name_en":"Pool Technician","parent_id":"3200"}, {"id":"923","name_en":"Portfolio Department","parent_id":"900"}, {"id":"1005","name_en":"Presenter\/Pretty","parent_id":"1000"}, {"id":"2310","name_en":"President\/Chairman","parent_id":"2300"}, {"id":"1906","name_en":"Pretty\/MC\/PC","parent_id":"1900"}, {"id":"2101","name_en":"Pretty\/MC\/PC","parent_id":"2100"}, {"id":"2401","name_en":"Pretty\/MC\/PC","parent_id":"2400"}, {"id":"2010","name_en":"Pricing Analysis","parent_id":"2000"}, {"id":"1105","name_en":"Primary\/Secondary Teacher","parent_id":"1100"}, {"id":"1101","name_en":"Principal\/Headmaster","parent_id":"1100"}, {"id":"2824","name_en":"Process Engineer","parent_id":"2800"}, {"id":"3011","name_en":"Producer","parent_id":"3000"}, {"id":"1003","name_en":"Product Department","parent_id":"1000"}, {"id":"703","name_en":"Product Designer","parent_id":"700"}, {"id":"1006","name_en":"Product Development","parent_id":"1000"}, {"id":"511","name_en":"Production Department","parent_id":"500"}, {"id":"505","name_en":"Production Engineering","parent_id":"500"}, {"id":"506","name_en":"Production Planning","parent_id":"500"}, {"id":"504","name_en":"Production\/ Factory Manager","parent_id":"500"}, {"id":"3108","name_en":"Program\/ Project Operation","parent_id":"3100"}, {"id":"314","name_en":"Programmer","parent_id":"300"}, {"id":"2810","name_en":"Project Engineer","parent_id":"2800"}, {"id":"810","name_en":"Project Manager\/Engineer","parent_id":"800"}, {"id":"2106","name_en":"Projectionist Staff","parent_id":"2100"}, {"id":"1007","name_en":"Promotion","parent_id":"1000"}, {"id":"3018","name_en":"Proof Reader","parent_id":"3000"}, {"id":"2811","name_en":"Property Management Services Engineer","parent_id":"2800"}, {"id":"1014","name_en":"Public Relations","parent_id":"1000"}, {"id":"1905","name_en":"Public Relations","parent_id":"1900"}, {"id":"3019","name_en":"Publishing \/ Printing","parent_id":"3000"}, {"id":"507","name_en":"QA\/QC","parent_id":"500"}, {"id":"811","name_en":"QC\/ QA","parent_id":"800"}, {"id":"2812","name_en":"QC\/ QA Engineer","parent_id":"2800"}, {"id":"2903","name_en":"Quality Assurance","parent_id":"2900"}, {"id":"324","name_en":"Quality Control","parent_id":"300"}, {"id":"413","name_en":"Radio-technologist","parent_id":"400"}, {"id":"2904","name_en":"Ramp and Load Control\/ Cargo","parent_id":"2900"}, {"id":"711","name_en":"Raw Material Controller","parent_id":"700"}, {"id":"512","name_en":"Raw\/ Material Department","parent_id":"500"}, {"id":"1903","name_en":"Reception","parent_id":"1900"}, {"id":"2508","name_en":"Recruitment","parent_id":"2500"}, {"id":"611","name_en":"Remittance","parent_id":"600"}, {"id":"3012","name_en":"Reporter","parent_id":"3000"}, {"id":"1207","name_en":"Research and Development","parent_id":"1200"}, {"id":"2835","name_en":"Reservoir Engineer","parent_id":"2800"}, {"id":"1307","name_en":"Retail","parent_id":"1300"}, {"id":"2007","name_en":"Revenue Audit","parent_id":"2000"}, {"id":"925","name_en":"Risk Management","parent_id":"900"}, {"id":"2906","name_en":"Safety Inspector","parent_id":"2900"}, {"id":"822","name_en":"Safety-Environment (Building\/ Construction)","parent_id":"800"}, {"id":"2912","name_en":"Safety-Environment Office\/ Senior","parent_id":"2900"}, {"id":"508","name_en":"Safety\/ Occupational Heath & Safety","parent_id":"500"}, {"id":"2407","name_en":"Sales Administrator\/Coordinator","parent_id":"2400"}, {"id":"812","name_en":"Sales Architect","parent_id":"800"}, {"id":"1617","name_en":"Sales Consultant","parent_id":"1600"}, {"id":"2813","name_en":"Sales Engineer","parent_id":"2800"}, {"id":"316","name_en":"Sales Engineer \/ Sales IT","parent_id":"300"}, {"id":"3013","name_en":"Sales Executive\/ Account Executive","parent_id":"3000"}, {"id":"2411","name_en":"Sales Manager","parent_id":"2400"}, {"id":"1016","name_en":"Sales Supervisor","parent_id":"1000"}, {"id":"1013","name_en":"Sales\/Marketing","parent_id":"1000"}, {"id":"1703","name_en":"Secretary","parent_id":"1700"}, {"id":"903","name_en":"Securities-Dealing & Trading (Broker)","parent_id":"900"}, {"id":"813","name_en":"Security","parent_id":"800"}, {"id":"2610","name_en":"Security","parent_id":"2600"}, {"id":"2823","name_en":"Service Engineer","parent_id":"2800"}, {"id":"2602","name_en":"Ship Operator","parent_id":"2600"}, {"id":"1302","name_en":"Shop Manager","parent_id":"1300"}, {"id":"1309","name_en":"Shop Sales staff","parent_id":"1300"}, {"id":"817","name_en":"Site Administration","parent_id":"800"}, {"id":"3215","name_en":"Smith","parent_id":"3200"}, {"id":"317","name_en":"Software Engineer","parent_id":"300"}, {"id":"302","name_en":"Software\/Application Developer","parent_id":"300"}, {"id":"1516","name_en":"Spa\/Massage Operation","parent_id":"1500"}, {"id":"3106","name_en":"Specialist","parent_id":"3100"}, {"id":"2907","name_en":"Stewardess & Steward","parent_id":"2900"}, {"id":"1707","name_en":"Stock","parent_id":"1700"}, {"id":"2011","name_en":"Stock Control","parent_id":"2000"}, {"id":"603","name_en":"Stolen-car Investigator","parent_id":"600"}, {"id":"908","name_en":"Stolen-car Investigator","parent_id":"900"}, {"id":"202","name_en":"Stone Grading Supervisor","parent_id":"200"}, {"id":"818","name_en":"Storekeeper","parent_id":"800"}, {"id":"1601","name_en":"Strategic Planning Consultant","parent_id":"1600"}, {"id":"819","name_en":"Structural Engineer","parent_id":"800"}, {"id":"2820","name_en":"Structural Engineer","parent_id":"2800"}, {"id":"3014","name_en":"Stylist","parent_id":"3000"}, {"id":"514","name_en":"Supply Chain","parent_id":"500"}, {"id":"2830","name_en":"Supply Chain Engineer","parent_id":"2800"}, {"id":"509","name_en":"Survey","parent_id":"500"}, {"id":"816","name_en":"Survey Engineer","parent_id":"800"}, {"id":"2821","name_en":"Survey Engineer","parent_id":"2800"}, {"id":"318","name_en":"System Administrator","parent_id":"300"}, {"id":"319","name_en":"System Analyst","parent_id":"300"}, {"id":"2814","name_en":"System Engineer","parent_id":"2800"}, {"id":"2012","name_en":"Tax Advisor","parent_id":"2000"}, {"id":"1106","name_en":"Teacher","parent_id":"1100"}, {"id":"1208","name_en":"Technical Sales","parent_id":"1200"}, {"id":"320","name_en":"Technical Support","parent_id":"300"}, {"id":"2815","name_en":"Technician","parent_id":"2800"}, {"id":"2816","name_en":"Telecommunication Engineer","parent_id":"2800"}, {"id":"2408","name_en":"Telesales","parent_id":"2400"}, {"id":"904","name_en":"Teller","parent_id":"900"}, {"id":"2908","name_en":"Ticket Sales","parent_id":"2900"}, {"id":"1517","name_en":"Tour Operation\/Reservation","parent_id":"1500"}, {"id":"2603","name_en":"Tractor\/Crane Driver","parent_id":"2600"}, {"id":"1303","name_en":"Trade Coordinator","parent_id":"1300"}, {"id":"3015","name_en":"Traffic & Information","parent_id":"3000"}, {"id":"2105","name_en":"Trainer","parent_id":"2100"}, {"id":"1107","name_en":"Trainer\/Tutor","parent_id":"1100"}, {"id":"2205","name_en":"Training","parent_id":"2200"}, {"id":"2505","name_en":"Training","parent_id":"2500"}, {"id":"2702","name_en":"Translator","parent_id":"2700"}, {"id":"3201","name_en":"Transport \/ Mobility","parent_id":"3200"}, {"id":"926","name_en":"Treasury Management Specialist","parent_id":"900"}, {"id":"420","name_en":"Treatment Service Staff","parent_id":"400"}, {"id":"2207","name_en":"Underwriter","parent_id":"2200"}, {"id":"411","name_en":"Veterinarian","parent_id":"400"}, {"id":"2311","name_en":"Vice President","parent_id":"2300"}, {"id":"3109","name_en":"Volunteer","parent_id":"3100"}, {"id":"2604","name_en":"Waiter\/Waitress","parent_id":"2600"}, {"id":"1017","name_en":"Warehouse Officer\/Stock Controller","parent_id":"1000"}, {"id":"1802","name_en":"Warehouse\/Inventory","parent_id":"1800"}, {"id":"2817","name_en":"Water Resources Engineer","parent_id":"2800"}, {"id":"321","name_en":"Web Designer \/ Developer","parent_id":"300"}, {"id":"322","name_en":"Web Master","parent_id":"300"}, {"id":"3216","name_en":"Welder \/ Lathe","parent_id":"3200"}, {"id":"2836","name_en":"Well Intervention Engineer","parent_id":"2800"}, {"id":"1304","name_en":"Wholesales","parent_id":"1300"}, {"id":"3303","name_en":"Work at Home","parent_id":"3300"}, {"id":"3017","name_en":"Writer","parent_id":"3000"}]}