{"error":"0","default":"1","result":[{"id":"26","name_en":"Amnat Charoen","regionId":"3"},{"id":"6","name_en":"Ang Thong","regionId":"2"},{"id":"1","name_en":"Bangkok","regionId":"2"},{"id":"20","name_en":"Buri Ram","regionId":"3"},{"id":"15","name_en":"Chachoengsao","regionId":"5"},{"id":"9","name_en":"Chai Nat","regionId":"2"},{"id":"25","name_en":"Chaiyaphum","regionId":"3"},{"id":"13","name_en":"Chanthaburi","regionId":"5"},{"id":"38","name_en":"Chiang Mai","regionId":"1"},{"id":"45","name_en":"Chiang Rai","regionId":"1"},{"id":"11","name_en":"Chon Buri","regionId":"5"},{"id":"69","name_en":"Chumphon","regionId":"6"},{"id":"34","name_en":"Kalasin","regionId":"3"},{"id":"49","name_en":"Kamphaeng Phet","regionId":"2"},{"id":"56","name_en":"Kanchanaburi","regionId":"4"},{"id":"28","name_en":"Khon Kaen","regionId":"3"},{"id":"64","name_en":"Krabi","regionId":"6"},{"id":"40","name_en":"Lampang","regionId":"1"},{"id":"39","name_en":"Lamphun","regionId":"1"},{"id":"7","name_en":"Loburi","regionId":"2"},{"id":"30","name_en":"Loei","regionId":"3"},{"id":"46","name_en":"Mae Hong Son","regionId":"1"},{"id":"32","name_en":"Maha Sarakham","regionId":"3"},{"id":"37","name_en":"Mukdahan","regionId":"3"},{"id":"17","name_en":"Nakhon Nayok","regionId":"2"},{"id":"58","name_en":"Nakhon Pathom","regionId":"2"},{"id":"36","name_en":"Nakhon Phanom","regionId":"3"},{"id":"19","name_en":"Nakhon Ratchasima","regionId":"3"},{"id":"47","name_en":"Nakhon Sawan","regionId":"2"},{"id":"63","name_en":"Nakhon Si Thammarat","regionId":"6"},{"id":"43","name_en":"Nan","regionId":"1"},{"id":"76","name_en":"Narathiwat","regionId":"6"},{"id":"27","name_en":"Nong Bua Lam Phu","regionId":"3"},{"id":"31","name_en":"Nong Khai","regionId":"3"},{"id":"3","name_en":"Nonthaburi","regionId":"2"},{"id":"4","name_en":"Pathum Thani","regionId":"2"},{"id":"74","name_en":"Pattani","regionId":"6"},{"id":"65","name_en":"Phangnga","regionId":"6"},{"id":"73","name_en":"Phatthalung","regionId":"6"},{"id":"44","name_en":"Phayao","regionId":"1"},{"id":"54","name_en":"Phetchabun","regionId":"2"},{"id":"61","name_en":"Phetchaburi","regionId":"4"},{"id":"53","name_en":"Phichit","regionId":"2"},{"id":"52","name_en":"Phitsanulok","regionId":"2"},{"id":"5","name_en":"Phra Nakhon Si Ayutthaya","regionId":"2"},{"id":"42","name_en":"Phrae","regionId":"1"},{"id":"66","name_en":"Phuket","regionId":"6"},{"id":"16","name_en":"Prachin Buri","regionId":"5"},{"id":"62","name_en":"Prachuap Khiri Khan","regionId":"4"},{"id":"68","name_en":"Ranong","regionId":"6"},{"id":"55","name_en":"Ratchaburi","regionId":"4"},{"id":"12","name_en":"Rayong","regionId":"5"},{"id":"33","name_en":"Roi Et","regionId":"3"},{"id":"18","name_en":"Sa Kaeo","regionId":"5"},{"id":"35","name_en":"Sakon Nakhon","regionId":"3"},{"id":"2","name_en":"Samut Prakan","regionId":"2"},{"id":"59","name_en":"Samut Sakhon","regionId":"2"},{"id":"60","name_en":"Samut Songkhram","regionId":"2"},{"id":"10","name_en":"Saraburi","regionId":"2"},{"id":"71","name_en":"Satun","regionId":"6"},{"id":"22","name_en":"Si Sa Ket","regionId":"3"},{"id":"8","name_en":"Sing Buri","regionId":"2"},{"id":"70","name_en":"Songkhla","regionId":"6"},{"id":"51","name_en":"Sukhothai","regionId":"2"},{"id":"57","name_en":"Suphan Buri","regionId":"2"},{"id":"67","name_en":"Surat Thani","regionId":"6"},{"id":"21","name_en":"Surin","regionId":"3"},{"id":"50","name_en":"Tak","regionId":"4"},{"id":"72","name_en":"Trang","regionId":"6"},{"id":"14","name_en":"Trat","regionId":"5"},{"id":"23","name_en":"Ubon Ratchathani","regionId":"3"},{"id":"29","name_en":"Udon Thani","regionId":"3"},{"id":"48","name_en":"Uthai Thani","regionId":"2"},{"id":"41","name_en":"Uttaradit","regionId":"1"},{"id":"75","name_en":"Yala","regionId":"6"},{"id":"24","name_en":"Yasothon","regionId":"3"},{"id":"77","name_en":"\u0e3aBuogkan","regionId":"3"}]}
