{"error":"0","default":"1","result":[{"id":"64","name_th":"\u0e01\u0e23\u0e30\u0e1a\u0e35\u0e48","regionId":"6"},{"id":"1","name_th":"\u0e01\u0e23\u0e38\u0e07\u0e40\u0e17\u0e1e\u0e21\u0e2b\u0e32\u0e19\u0e04\u0e23","regionId":"2"},{"id":"56","name_th":"\u0e01\u0e32\u0e0d\u0e08\u0e19\u0e1a\u0e38\u0e23\u0e35","regionId":"4"},{"id":"34","name_th":"\u0e01\u0e32\u0e2c\u0e2a\u0e34\u0e19\u0e18\u0e38\u0e4c","regionId":"3"},{"id":"49","name_th":"\u0e01\u0e33\u0e41\u0e1e\u0e07\u0e40\u0e1e\u0e0a\u0e23","regionId":"2"},{"id":"28","name_th":"\u0e02\u0e2d\u0e19\u0e41\u0e01\u0e48\u0e19","regionId":"3"},{"id":"13","name_th":"\u0e08\u0e31\u0e19\u0e17\u0e1a\u0e38\u0e23\u0e35","regionId":"5"},{"id":"15","name_th":"\u0e09\u0e30\u0e40\u0e0a\u0e34\u0e07\u0e40\u0e17\u0e23\u0e32","regionId":"5"},{"id":"11","name_th":"\u0e0a\u0e25\u0e1a\u0e38\u0e23\u0e35","regionId":"5"},{"id":"9","name_th":"\u0e0a\u0e31\u0e22\u0e19\u0e32\u0e17","regionId":"2"},{"id":"25","name_th":"\u0e0a\u0e31\u0e22\u0e20\u0e39\u0e21\u0e34","regionId":"3"},{"id":"69","name_th":"\u0e0a\u0e38\u0e21\u0e1e\u0e23","regionId":"6"},{"id":"72","name_th":"\u0e15\u0e23\u0e31\u0e07","regionId":"6"},{"id":"14","name_th":"\u0e15\u0e23\u0e32\u0e14","regionId":"5"},{"id":"50","name_th":"\u0e15\u0e32\u0e01","regionId":"4"},{"id":"17","name_th":"\u0e19\u0e04\u0e23\u0e19\u0e32\u0e22\u0e01","regionId":"2"},{"id":"58","name_th":"\u0e19\u0e04\u0e23\u0e1b\u0e10\u0e21","regionId":"2"},{"id":"36","name_th":"\u0e19\u0e04\u0e23\u0e1e\u0e19\u0e21","regionId":"3"},{"id":"19","name_th":"\u0e19\u0e04\u0e23\u0e23\u0e32\u0e0a\u0e2a\u0e35\u0e21\u0e32","regionId":"3"},{"id":"63","name_th":"\u0e19\u0e04\u0e23\u0e28\u0e23\u0e35\u0e18\u0e23\u0e23\u0e21\u0e23\u0e32\u0e0a","regionId":"6"},{"id":"47","name_th":"\u0e19\u0e04\u0e23\u0e2a\u0e27\u0e23\u0e23\u0e04\u0e4c","regionId":"2"},{"id":"3","name_th":"\u0e19\u0e19\u0e17\u0e1a\u0e38\u0e23\u0e35","regionId":"2"},{"id":"76","name_th":"\u0e19\u0e23\u0e32\u0e18\u0e34\u0e27\u0e32\u0e2a","regionId":"6"},{"id":"43","name_th":"\u0e19\u0e48\u0e32\u0e19","regionId":"1"},{"id":"77","name_th":"\u0e1a\u0e36\u0e07\u0e01\u0e32\u0e2c","regionId":"3"},{"id":"20","name_th":"\u0e1a\u0e38\u0e23\u0e35\u0e23\u0e31\u0e21\u0e22\u0e4c","regionId":"3"},{"id":"4","name_th":"\u0e1b\u0e17\u0e38\u0e21\u0e18\u0e32\u0e19\u0e35","regionId":"2"},{"id":"62","name_th":"\u0e1b\u0e23\u0e30\u0e08\u0e27\u0e1a\u0e04\u0e35\u0e23\u0e35\u0e02\u0e31\u0e19\u0e18\u0e4c","regionId":"4"},{"id":"16","name_th":"\u0e1b\u0e23\u0e32\u0e08\u0e35\u0e19\u0e1a\u0e38\u0e23\u0e35","regionId":"5"},{"id":"74","name_th":"\u0e1b\u0e31\u0e15\u0e15\u0e32\u0e19\u0e35","regionId":"6"},{"id":"5","name_th":"\u0e1e\u0e23\u0e30\u0e19\u0e04\u0e23\u0e28\u0e23\u0e35\u0e2d\u0e22\u0e38\u0e18\u0e22\u0e32","regionId":"2"},{"id":"44","name_th":"\u0e1e\u0e30\u0e40\u0e22\u0e32","regionId":"1"},{"id":"65","name_th":"\u0e1e\u0e31\u0e07\u0e07\u0e32","regionId":"6"},{"id":"73","name_th":"\u0e1e\u0e31\u0e17\u0e25\u0e38\u0e07","regionId":"6"},{"id":"53","name_th":"\u0e1e\u0e34\u0e08\u0e34\u0e15\u0e23","regionId":"2"},{"id":"52","name_th":"\u0e1e\u0e34\u0e29\u0e13\u0e38\u0e42\u0e25\u0e01","regionId":"2"},{"id":"66","name_th":"\u0e20\u0e39\u0e40\u0e01\u0e47\u0e15","regionId":"6"},{"id":"32","name_th":"\u0e21\u0e2b\u0e32\u0e2a\u0e32\u0e23\u0e04\u0e32\u0e21","regionId":"3"},{"id":"37","name_th":"\u0e21\u0e38\u0e01\u0e14\u0e32\u0e2b\u0e32\u0e23","regionId":"3"},{"id":"75","name_th":"\u0e22\u0e30\u0e25\u0e32","regionId":"6"},{"id":"24","name_th":"\u0e22\u0e42\u0e2a\u0e18\u0e23","regionId":"3"},{"id":"33","name_th":"\u0e23\u0e49\u0e2d\u0e22\u0e40\u0e2d\u0e47\u0e14","regionId":"3"},{"id":"68","name_th":"\u0e23\u0e30\u0e19\u0e2d\u0e07","regionId":"6"},{"id":"12","name_th":"\u0e23\u0e30\u0e22\u0e2d\u0e07","regionId":"5"},{"id":"55","name_th":"\u0e23\u0e32\u0e0a\u0e1a\u0e38\u0e23\u0e35","regionId":"4"},{"id":"7","name_th":"\u0e25\u0e1e\u0e1a\u0e38\u0e23\u0e35","regionId":"2"},{"id":"40","name_th":"\u0e25\u0e33\u0e1b\u0e32\u0e07","regionId":"1"},{"id":"39","name_th":"\u0e25\u0e33\u0e1e\u0e39\u0e19","regionId":"1"},{"id":"22","name_th":"\u0e28\u0e23\u0e35\u0e2a\u0e30\u0e40\u0e01\u0e29","regionId":"3"},{"id":"35","name_th":"\u0e2a\u0e01\u0e25\u0e19\u0e04\u0e23","regionId":"3"},{"id":"70","name_th":"\u0e2a\u0e07\u0e02\u0e25\u0e32","regionId":"6"},{"id":"71","name_th":"\u0e2a\u0e15\u0e39\u0e25","regionId":"6"},{"id":"2","name_th":"\u0e2a\u0e21\u0e38\u0e17\u0e23\u0e1b\u0e23\u0e32\u0e01\u0e32\u0e23","regionId":"2"},{"id":"60","name_th":"\u0e2a\u0e21\u0e38\u0e17\u0e23\u0e2a\u0e07\u0e04\u0e23\u0e32\u0e21","regionId":"2"},{"id":"59","name_th":"\u0e2a\u0e21\u0e38\u0e17\u0e23\u0e2a\u0e32\u0e04\u0e23","regionId":"2"},{"id":"10","name_th":"\u0e2a\u0e23\u0e30\u0e1a\u0e38\u0e23\u0e35","regionId":"2"},{"id":"18","name_th":"\u0e2a\u0e23\u0e30\u0e41\u0e01\u0e49\u0e27","regionId":"5"},{"id":"8","name_th":"\u0e2a\u0e34\u0e07\u0e2b\u0e4c\u0e1a\u0e38\u0e23\u0e35","regionId":"2"},{"id":"57","name_th":"\u0e2a\u0e38\u0e1e\u0e23\u0e23\u0e13\u0e1a\u0e38\u0e23\u0e35","regionId":"2"},{"id":"67","name_th":"\u0e2a\u0e38\u0e23\u0e32\u0e29\u0e0e\u0e23\u0e4c\u0e18\u0e32\u0e19\u0e35","regionId":"6"},{"id":"21","name_th":"\u0e2a\u0e38\u0e23\u0e34\u0e19\u0e17\u0e23\u0e4c","regionId":"3"},{"id":"51","name_th":"\u0e2a\u0e38\u0e42\u0e02\u0e17\u0e31\u0e22","regionId":"2"},{"id":"31","name_th":"\u0e2b\u0e19\u0e2d\u0e07\u0e04\u0e32\u0e22","regionId":"3"},{"id":"27","name_th":"\u0e2b\u0e19\u0e2d\u0e07\u0e1a\u0e31\u0e27\u0e25\u0e33\u0e20\u0e39","regionId":"3"},{"id":"6","name_th":"\u0e2d\u0e48\u0e32\u0e07\u0e17\u0e2d\u0e07","regionId":"2"},{"id":"26","name_th":"\u0e2d\u0e33\u0e19\u0e32\u0e08\u0e40\u0e08\u0e23\u0e34\u0e0d","regionId":"3"},{"id":"29","name_th":"\u0e2d\u0e38\u0e14\u0e23\u0e18\u0e32\u0e19\u0e35","regionId":"3"},{"id":"41","name_th":"\u0e2d\u0e38\u0e15\u0e23\u0e14\u0e34\u0e15\u0e16\u0e4c","regionId":"1"},{"id":"48","name_th":"\u0e2d\u0e38\u0e17\u0e31\u0e22\u0e18\u0e32\u0e19\u0e35","regionId":"2"},{"id":"23","name_th":"\u0e2d\u0e38\u0e1a\u0e25\u0e23\u0e32\u0e0a\u0e18\u0e32\u0e19\u0e35","regionId":"3"},{"id":"45","name_th":"\u0e40\u0e0a\u0e35\u0e22\u0e07\u0e23\u0e32\u0e22","regionId":"1"},{"id":"38","name_th":"\u0e40\u0e0a\u0e35\u0e22\u0e07\u0e43\u0e2b\u0e21\u0e48","regionId":"1"},{"id":"61","name_th":"\u0e40\u0e1e\u0e0a\u0e23\u0e1a\u0e38\u0e23\u0e35","regionId":"4"},{"id":"54","name_th":"\u0e40\u0e1e\u0e0a\u0e23\u0e1a\u0e39\u0e23\u0e13\u0e4c","regionId":"2"},{"id":"30","name_th":"\u0e40\u0e25\u0e22","regionId":"3"},{"id":"42","name_th":"\u0e41\u0e1e\u0e23\u0e48","regionId":"1"},{"id":"46","name_th":"\u0e41\u0e21\u0e48\u0e2e\u0e48\u0e2d\u0e07\u0e2a\u0e2d\u0e19","regionId":"1"}]}
